ID,NOMBRE,DESCRIPCION,HORARIO,TELEFONO,TIPO,SUB_TIPO,LATITUD,LONGITUD,DIRECCION
5635,ATM: 702 Av. 6 de Agosto LP,Cajero Automático,Horario.SI,800103999,Tipo.ATM,SubTipo.ATM_ESTANDAR,-16.5056026752,-68.12985515,"Av. 6 de Agosto N° 227, esq., Calle J. J. Perez, Zona Sopocachi."
6175,ATM: 734 6 de Agosto,Cajero Automático,Horario.SI,80010399,Tipo.ATM,SubTipo.ATM_ESPECIAL,-16.513007969421196,-68.12241655302833,Av. 6 de Agosto entre Calles Campos y Cordero
164,ATM: 186 IC Norte América,Cajero Automático,Horario.SI,800-103999,Tipo.ATM,SubTipo.ATM_ESTANDAR,-17.3726361111,-66.1511472222,"Av. América N° 817, Supermercado IC Norte América."
3892,ATM: 440 Makro Parque,Cajero Automático,Horario.SI,800103999,Tipo.ATM,SubTipo.ATM_ESTANDAR,-17.765000552147654,-63.14778421392629,"Av. Cuarto Anillo, final Av. Paragua, Parque Industrial."
5590,ATM: 332 Av. Dorbigni y Juan Pablo II,Cajero Automático,Horario.SI,800103999,Tipo.ATM,SubTipo.ATM_ESPECIAL,-17.385891768452314,-66.19907716480374,"Av. Juan Pablo II, esq. D'orbigni N° 28, Zona Seminario."
6179,ATM: 727 Teleférico Estación Mirador,Cajero Automático,Horario.NO,800103999,Tipo.ATM,SubTipo.ATM_ESPECIAL,-16.517995288189134,-68.15045475003191,"Av. Nuñez del Prado, Estación Mirador, Teleférico Amarillo, El Alto."
2064,ATM: 417 Hipermaxi Equipetrol,Cajero Automático,Horario.SI,800-103999,Tipo.ATM,SubTipo.ATM_ESTANDAR,-17.75759623314822,-63.200538151335955,"Av. San Martin, Esq. 4to. Anillo."
5627,ATM: 711 Av. Satélite,Cajero Automático,Horario.SI,800103999,Tipo.ATM,SubTipo.ATM_ESTANDAR,-16.523175714427364,-68.15268293828012,"Av. Satélite, Plan 50 N° 650, Zona Ciudad Satélite, El Alto."
6171,ATM: 732 Uruguay,Cajero Automático,Horario.SI,800103999,Tipo.ATM,SubTipo.ATM_ESPECIAL,-16.49095096662471,-68.13912531429725,Av. Uruguay esq. Av. Ismael Montes.
5338,ATM: 475 Supermercado TIA,Cajero Automático,Horario.SI,800103999,Tipo.ATM,SubTipo.ATM_ESPECIAL,-17.7814103,-63.1534527,"Avenida Virgen de Cotoca N° 3872, entre 3er. Anillo Interno y 3er. Anillo Externo."
5616,ATM: 704 Plaza Villarroel,Cajero Automático,Horario.SI,800103999,Tipo.ATM,SubTipo.ATM_ESTANDAR,-16.485164743664427,-68.1223058367078,"Calle General Monje N° 100, entre Av. EEUU y Av. Busch, frente a la Plaza Villarroel, Zona Miraflores."
2528,ATM: 425 Ag. Ambassador I - Depositario,Cajero Automático,Horario.SI,800-103999.,Tipo.ATM,SubTipo.ATM_ESPECIAL,-17.768290596816694,-63.193716692478915,"Instalaciones de la Agencia Ambassador ubicada en el Centro Empresarial Ambassador, Barrio Equipetrol, sobre Av. San Martin."
3279,ATM: 433 Supermercado PRONTO,Cajero Automático,Horario.SI,800103999,Tipo.ATM,SubTipo.ATM_ESPECIAL,-17.77462044261823,-63.16552811642316,"Instalaciones del Supermercado Pronto, Av. Santa Cruz, 2do Anillo, esquina Av. Paragua."
10,AGENCIA MUTUALISTA,Santa Cruz,Horario.NO,(591-3) 317 3000,Tipo.AGENCIA,SubTipo.AGENCIA_NORMAL,-17.763036342056274,-63.163291353162656,"3er Anillo Int. N° 1050, entre Calles Sandía y Buena Vista."
9516,Kiosko de Autoservicio Ag. Mutualista II,Kiosco de Autoservicio,Horario.NO,3 173000,Tipo.ATM,SubTipo.KIOSCO,-17.763024104875544,-63.16322976897756,"3er Anillo Interno N° 1050, entre calles Sandía y Buena Vista"
9526,Kiosko de Autoservicio Ag. Mutualista,Kiosco de Autoservicio,Horario.NO,3 173000,Tipo.ATM,SubTipo.KIOSCO,-17.763024104875544,-63.16322976897756,"3er Anillo Interno N° 1050, entre calles Sandía y Buena Vista"
7857,ATM: 480 3 Pasos al Frente 4to Anillo,Cajero Automático,Horario.SI,800103999,Tipo.ATM,SubTipo.ATM_ESPECIAL,-17.79913819398114,-63.14970383588718,ATM 3 Pasos al Frente 4to Anillo
36,ATM: 144 Agencia Mutualista,Cajero Automático,Horario.SI,800-103999,Tipo.ATM,SubTipo.ATM_ESTANDAR,-17.762947989059178,-63.163305166996835,"Agencia Mutualista-Av. Dr. Lucas Saucedo N? 1050, 3er Anillo Interno"
6399,ATM: 355 Jordan,Cajero Automático,Horario.SI,800103999,Tipo.ATM,SubTipo.INFANTIL,-17.3944287,-66.1504978,"Aldeas Infantiles SOS, Calle Jordan y 16 de Julio."
7686,ATM: 491 Fontana Riviera,Cajero Automático,Horario.SI,800103999,Tipo.ATM,SubTipo.ATM_ESPECIAL,-17.69986869208897,-63.13286423134059,"Almacenes TONCHAN, Av. Internacional, Ingreso a La Fontana Riviera y Valle del Cártago."
107,ATM: 170 Estadio Hernando Siles,Cajero Automático,Horario.SI,800-103999,Tipo.ATM,SubTipo.ATM_ESTANDAR,-16.5000702,-68.12405790000001,Atm Estadio Hernando Siles
8533,ATM: 554 San Ignacio de Velasco II,Cajero Automático,Horario.SI,800103999,Tipo.ATM,SubTipo.ATM_ESTANDAR,-16.375287896469644,-60.959329100197,Atm San Ignacio de Velasco II
8548,ATM: 551 Eduardo S.A.,Cajero Automático,Horario.SI,800103999,Tipo.ATM,SubTipo.ATM_ESTANDAR,-17.566825917036777,-63.15867447261657,"Autovía al Norte Km. 23, Warnes, Empresa Eduardo S.A."
6135,ATM: 223 Club de Tenis Sucre,Cajero Automático,Horario.SI,800103999,Tipo.ATM,SubTipo.ATM_ESTANDAR,-19.040013446100488,-65.2648732287376,"Av. Venezuela N° 1, Zona Parque Simón Bolívar."
106,ATM: 171 El Prado La Paz,Cajero Automático,Horario.SI,800-103999,Tipo.ATM,SubTipo.ATM_ESTANDAR,-16.50363543133315,-68.13105002320547,"Av. 16 de Julio N° 1805 entre Calles Tihuanacu y Batallón Colorados, Zona El Prado"
8628,ATM: 570 2 de Agosto,Cajero Automático,Horario.SI,800103999,Tipo.ATM,SubTipo.ATM_ESTANDAR,-17.7432375,-63.1492656,"Av. 2 de Agosto, Barrio Nueva Esperanza, entre 5to. y 6to. Anillo."
8572,ATM: 559 Warnes Santa Rosita,Cajero Automático,Horario.SI,800103999,Tipo.ATM,SubTipo.ATM_ESTANDAR,-17.5153051,-63.1656633,"Av. 25 de Mayo, Esq. Av. Santa Rosita, Warnes"
8882,ATM: 200 Av. 27 de Mayo,Cajero Automático,Horario.SI,800103999,Tipo.ATM,SubTipo.ATM_ESTANDAR,-11.025410369192015,-68.7655880699753,"Av. 27 de Mayo, entre Av. Pando y Ruta Nacional 13, Cobija"
8634,ATM: 567 3 Pasos al Frente 6to. Anillo,Cajero Automático,Horario.SI,800103999,Tipo.ATM,SubTipo.ATM_ESTANDAR,-17.801336,-63.1350817,"Av. 3 Pasos al Frente, rotonda 6to. Anillo."
8697,ATM: 246 Hipermaxi Radial 26,Cajero Automático,Horario.SI,800103999,Tipo.ATM,SubTipo.ATM_ESTANDAR,-17.7769196,-63.1731648,"Av. 4to Anillo, Esq. Canal Pedro Vélez, Zona Radial 26, Supermercado Hipermaxi"
8717,ATM: 278 Le Mans Norte,Cajero Automático,Horario.SI,800103999,Tipo.ATM,SubTipo.ATM_ESTANDAR,-17.7503535,-63.17626610000001,"Av. 4to Anillo, casi esquina Av. Cristo Redentor, Zona Norte, LE MANS LTDA"
9469,Kiosko de Autoservicio Ag. El Alto,Kiosko de Autoservicio,Horario.NO,3173000,Tipo.ATM,SubTipo.KIOSCO,-16.5091140309774,-68.1642494747688,Av. 6 de Marzo N° 701-A entre Calles 5 y 6
8506,ATM: 737 Ag. El Alto Sala II,Cajero Automático,Horario.SI,800103999,Tipo.ATM,SubTipo.ATM_ESPECIAL,-16.510172675384332,-68.16448032558931,"Av. 6 de Marzo N° 701-A entre Calles 5 y 6, Zona 12 de Octubre, El Alto."
8504,ATM: 736 Ag. El Alto Sala I,Cajero Automático,Horario.SI,800103999,Tipo.ATM,SubTipo.ATM_ESPECIAL,-16.510147059895466,-68.16445910117291,"Av. 6 de Marzo N° 701-A entre Calles 5 y 6, Zona 12 de Octubre, El Alto."
100,AGENCIA EL ALTO,La Paz,Horario.NO,(591-2) 217-3000,Tipo.AGENCIA,SubTipo.AGENCIA_NORMAL,-16.510060794046215,-68.16454962778616,"Av. 6 de Marzo N°701-A, entre Calle 5 y 6, Zona 12 de Octubre."
8386,ATM: 358 Tren Metropolitano,Cajero Automático,Horario.NO,800103999,Tipo.ATM,SubTipo.ATM_ESTANDAR,-17.412095535174164,-66.15413304299163,"Av. 6 de agosto, Esq. Av. Barrientos, Estación Central ""San Antonio""."
6216,ATM: 199 El Cristo Cobija,Cajero Automático,Horario.SI,800103999,Tipo.ATM,SubTipo.ATM_ESTANDAR,-11.027239473314118,-68.75972529361438,"Av. 9 de Febrero, Esq. Av. Internacional."
5612,ATM: 700 Calatayud,Cajero Automático,Horario.SI,800103999,Tipo.ATM,SubTipo.ATM_ESTANDAR,-16.4940820965,-68.148294107,"Av. Alejo Calatayud esq. Angélica Azcui N° 569, Zona Callapampa."
7676,ATM: 485 Alemana Tusequis,Cajero Automático,Horario.SI,800103999,Tipo.ATM,SubTipo.ATM_ESPECIAL,-17.74084133145355,-63.15744990130699,Av. Alemana N°5310 entre 5to y 6to. Anillo.
7776,ATM: 486 Alemana 7mo Anillo,Cajero Automático,Horario.SI,800103999,Tipo.ATM,SubTipo.ATM_ESTANDAR,-17.731389490547496,-63.15005772241866,Av. Alemana N°6990 casi esq. 7mo. Anillo.
8536,ATM: 555 Nuevo Mercado Los Pozos,Cajero Automático,Horario.SI,800103999,Tipo.ATM,SubTipo.ATM_ESPECIAL,-17.72557155801239,-63.14695356938095,"Av. Alemania, entre 7mo y 8vo Anillo, Mercado Nuevo Los Pozos"
108,ATM: 280 16 de Julio,Cajero Automático,Horario.SI,800-103999,Tipo.ATM,SubTipo.ATM_ESTANDAR,-16.4996361,-68.1750557,"Av. Alfonso Ugarte N° 108, Zona 16 de Julio, El Alto."
9259,AGENCIA 16 DE JULIO,La Paz,,(591-2)217-3000,Tipo.AGENCIA,SubTipo.AGENCIA_NORMAL,-16.496624359734284,-68.17381296910072,"Av. Alfonso Ugarte N° 250, entre las Calles Pascoe y José Arzabe, Zona 16 de Julio, El Alto"
9473,Kiosko de Autoservicio Ag.16 de Julio,Kiosko de Autoservicio,Horario.NO,3173000,Tipo.ATM,SubTipo.KIOSCO,-16.4965098092026,-681738147231907.0,"Av. Alfonso Ugarte N°250, entre las Calles Pascoe y José Arzabe"
9161,ATM Of. 16 de Julio,Cajero Automático,Horario.SI,(591-2)217-3000,Tipo.ATM,SubTipo.ATM_ESTANDAR,-16.496564161568433,-68.1738171161215,"Av. Alfonso Ugarte N°250, entre las Calles Pascoe y José Arzabe, Zona 16 de Julio, El Alto."
153,ATM: 310 Univ. Católica,Cajero Automático,Horario.SI,800-103999,Tipo.ATM,SubTipo.ATM_ESTANDAR,-17.3734583333333,-66.1424694444444,"Av. América Esq. Av. General Galindo, Univ. Católica Boliviana San Pablo."
6231,ATM: 345 Paseo Aranjuez,Cajero Automático,Horario.NO,800103999,Tipo.ATM,SubTipo.ATM_ESPECIAL,-17.3731658,-66.1548584,"Av. América N° 77, Esquina Calle Pantaleón Dalence, Paseo Aranjuez."
9483,Kiosko de Autoservicio Ag. America,Kiosko de Autoservicio,Horario.NO,3173000,Tipo.ATM,SubTipo.KIOSCO,-17.3720968509482,-66.1624919071939,Av. América esq. Libertador Bolívar
9556,Kiosko de Autoservicio Ag. America,Kiosko de Autoservicio,Horario.NO,3173000,Tipo.ATM,SubTipo.KIOSCO,-17.3720968509482,-66.1624919071939,Av. América esq. Libertador Bolívar
149,AGENCIA AMÉRICA,Cochabamba,Horario.NO,(591-4) 417 3000,Tipo.AGENCIA,SubTipo.AGENCIA_NORMAL,-17.3722777778,-66.1624388889,Av. América esq. Libertador Bolívar.
8876,ATM: 364 Final América,Cajero Automático,Horario.SI,800103999,Tipo.ATM,SubTipo.ATM_ESTANDAR,-17.3709651,-66.18411139999999,"Av. América, entre la Calle Pasaje¿G¿ y la Calle Andrés C. Ferrufino, Zona Sarcobamba,"
5916,ATM: 338 Aniceto Arce,Cajero Automático,Horario.SI,800103999,Tipo.ATM,SubTipo.ATM_ESTANDAR,-17.387085699601514,-66.14817264376765,Av. Aniceto Arce N° 412 esq. Parque La Torre.
6183,ATM: 729 Multicine,Cajero Automático,Horario.NO,800103999,Tipo.ATM,SubTipo.ATM_ESTANDAR,-16.5110226553352,-68.12236955885186,"Av. Arce entre Calles Pinilla y Gosálvez, Multicine."
105,ATM: 173 Plaza Isabel La Católica,Cajero Automático,Horario.SI,800-103999,Tipo.ATM,SubTipo.ATM_ESTANDAR,-16.5088122,-68.1243009,"Av. Arce, Plaza Isabel La Católica."
9552,Kiosko de Autoservicio Sucursal Cochabamba II,Kiosko de Autoservicio,Horario.NO,3173000,Tipo.ATM,SubTipo.KIOSCO,-17.3934490639462,-66.1589173314325,"Av. Ayacucho N° 174, esq. General Acha"
9550,Kiosko de Autoservicio Sucursal Cochabamba,Kiosko de Autoservicio,Horario.NO,3173000,Tipo.ATM,SubTipo.KIOSCO,-17.3934490639462,-66.1589173314325,"Av. Ayacucho N° 174, esq. General Acha"
6821,ATM: 344 Suc. Cochabamba II,Cajero Automático,Horario.SI,800103999,Tipo.ATM,SubTipo.ATM_ESTANDAR,-17.393477205996252,-66.15885616347495,"Av. Ayacucho Nº 174, Esq. General Acha, Edif. Mª. Antonieta ¿ PB."
147,SUCURSAL COCHABAMBA,Cochabamba,Horario.NO,(591-4) 417 3000,Tipo.AGENCIA,SubTipo.AGENCIA_NORMAL,-17.393488229534945,-66.15881711773451,"Av. Ayacucho Nº174 esq. General Achá, Edif. Mª. Antonieta - PB"
151,ATM: 185 Suc. Cochabamba,Cajero Automático,Horario.SI,800-103999,Tipo.ATM,SubTipo.ATM_ESPECIAL,-17.39350092545436,-66.15884522778168,Av. Ayacucho S-174 Edif. M. Antonieta - PB
9548,Kiosko de Autoservicio Terminal de buses,Kiosko de Autoservicio,Horario.NO,3173000,Tipo.ATM,SubTipo.KIOSCO,-17.4025480022406,-66.1576065645339,"Av. Ayacucho, Terminal de Buses"
6382,ATM: 348 Beijing,Cajero Automático,Horario.SI,800103999,Tipo.ATM,SubTipo.ATM_ESTANDAR,-17.375058385080788,-66.18061191965923,Av. Beijing casi Esq. De la Calle Juan de la Rosa
57,ATM: 245 Depositario Hamacas,Cajero Automático,Horario.SI,800-103999,Tipo.ATM,SubTipo.ATM_ESPECIAL,-17.7554055555556,-63.1719638888889,"Av. Beni N° 3410, Barrio Hamacas, entre 3er y 4to anillo."
6380,ATM: 347 Cine Center Quilla,Cajero Automático,Horario.SI,800103999,Tipo.ATM,SubTipo.ATM_ESPECIAL,-17.3930086,-66.27321189999999,"Av. Blanco Galindo Km. 12, Cine Center, Quillacollo"
5600,ATM: 327 Av. Juan Pablo II,Cajero Automático,Horario.SI,800103999,Tipo.ATM,SubTipo.ATM_ESPECIAL,-17.39237091392976,-66.1993506809371,"Av. Blanco Galindo y Juan Pablo II, N° 3592, Zona Seminario."
152,ATM: 318 Blanco Galindo - Depositario,Cajero Automático,Horario.SI,800-103999,Tipo.ATM,SubTipo.ATM_ESPECIAL,-17.3936972222222,-66.1683833333333,"Av. Blanco Galindo, Esquina Calle Francisco Viedma, Zona Hipodromo."
8937,ATM: 748 Agencia Uyustus,Cajero Automático,Horario.SI,800103999,Tipo.ATM,SubTipo.ATM_ESTANDAR,-16.495026861748677,-68.14413837495371,"Av. Buenos Aires Nro 555, casi esq. Av. Tumusla."
8933,Agencia UYUSTUS,Agencia,,800103999,Tipo.AGENCIA,SubTipo.AGENCIA_NORMAL,-16.495026861748677,-68.14413837495371,"Av. Buenos Aires N° 555, casi Esq. Av. Tumusla"
9471,Kiosko de Autoservicio Ag. Uyustus,Kiosko de Autoservicio,Horario.NO,3173000,Tipo.ATM,SubTipo.KIOSCO,-16.4950348392647,-68.1442831838113,"Av. Buenos Aires N° 555, casi esq. Av. Tumusla"
5295,Kiosco Smart Miraflores,Kiosco dispensador de Tarjetas de Débito,Horario.SI,800103999,Tipo.ATM,SubTipo.KIOSCO,-16.50254877163866,-68.12075507393416,"Av. Busch esq., Calle Villa Lobos N° 1997, Zona Miraflores (Sala de Autoservicios)."
1,AGENCIA CIUDAD REAL,Santa Cruz,Horario.NO,(591-3) 317-3000,Tipo.AGENCIA,SubTipo.AGENCIA_NORMAL,-17.772537706420067,-63.20253813831761,"Av. Busch y 3er Anillo Int. Centro Comercial Casa Design Center, Local Nº 5 Bloque K."
9489,Kiosko de Autoservicio Ag. Ciudad Real,Kiosko de Autoservicio,Horario.NO,3173000,Tipo.ATM,SubTipo.KIOSCO,-17.77261458622337,-63.20232269334983,"Av. Busch y 3er Anillo Interno, Local 5, bloque K, Centro Comercial Design Center"
9479,Kiosko de Autoservicio Ag. Ciudad Real II,Kiosko de Autoservicio,Horario.NO,3173000,Tipo.ATM,SubTipo.KIOSCO,-17.7726514530415,-63.20247821509838,"Av. Busch y 3er Anillo Interno, Local 5, bloque K, Centro Comercial Design Center"
6141,ATM: 215 Edif. URANORTE,Cajero Automático,Horario.SI,800103999,Tipo.ATM,SubTipo.ATM_ESPECIAL,-17.953497250368596,-67.10982799940815,"Av. Busch, Esq. Calle Campo Jordan, Edificio URANORTE"
102,ATM: 287 Sucursal La Paz,Cajero Automático,Horario.SI,800-103999,Tipo.ATM,SubTipo.ATM_ESPECIAL,-16.499170098320846,-68.13381856462262,Av. Camacho N 1372 (Zona Central)
9451,Kiosko de Autoservicio Sucursal La Paz,Kiosko de Autoservicio Sucursal La Paz,Horario.NO,3173000,Tipo.ATM,SubTipo.KIOSCO,-16.4990272410329,-68.133814331402,Av. Camacho N° 1372
3952,ATM: 294 Sucursal La Paz II,Cajero Automático,Horario.SI,800103999,Tipo.ATM,SubTipo.ATM_ESPECIAL,-16.4992587,-68.1338492,"Av. Camacho N° 1372, Sala de Autoservicios de Sucursal La Paz"
9453,Kiosko de Autoservicio Sucursal La Paz II,Kiosko de Autoservicio,Horario.NO,3173000,Tipo.ATM,SubTipo.KIOSCO_S,-16.4990272410329,-68.133814331402,Av. Camacho N°1372
99,SUCURSAL LA PAZ,La Paz,Horario.NO,(591-2) 217-3000,Tipo.AGENCIA,SubTipo.AGENCIA_NORMAL,-16.49916053459392,-68.13384878850847,"Av. Camacho N°1372, Zona Central."
5918,ATM: 339 Victor Ustariz,Cajero Automático,Horario.SI,800103999,Tipo.ATM,SubTipo.ATM_ESTANDAR,-17.397418768090006,-66.20003316682282,Av. Capitán Victor Ustáriz y Juan Pablo II.
8859,ATM: 134 Av. Cañoto - Euroenvios,Cajero Automático,Horario.SI,800103999,Tipo.ATM,SubTipo.ATM_ESTANDAR,-17.7785658,-63.1887094,"Av. Cañoto Nº 476, casi esq. Calle México, 1er. Anillo, Frente a la Clínica Niño Jesús"
8624,ATM: 572 Centenario,Cajero Automático,Horario.SI,800103999,Tipo.ATM,SubTipo.ATM_ESPECIAL,-17.7799297,-63.19128789999999,"Av. Centenario N° 115, entre Av. Cañoto y Av. 26 de Febrero"
6069,ATM: 906 Super La Familia,Cajero Automático,Horario.SI,800103999,Tipo.ATM,SubTipo.ATM_ESTANDAR,-14.8276611111111,-64.9027861111111,"Av. Cipriano Barace, esq. Calle Gil Coimbra."
8474,ATM: 414 Hipermaxi Montero,Cajero Automático,Horario.SI,800103999,Tipo.ATM,SubTipo.ATM_ESPECIAL,-17.3333648,-63.25551219999999,"Av. Circunvalación Andrés Ibañez, entre Av. Panamericana y Calle Roberto Paz, Hipermaxi Montero."
7235,ATM: 524 German Moreno,Cajero Automático,Horario.SI,800103999,Tipo.ATM,SubTipo.ATM_ESPECIAL,-17.34451,-63.24769489999999,"Av. Circunvalación Este N° 544 entre Calles Amador Parada y Ezequiel Saucedo, Barrio 25 de Diciembre, Zona Mercado German Moreno."
7237,ATM: 525 Sur Montero,Cajero Automático,Horario.SI,800103999,Tipo.ATM,SubTipo.ATM_ESTANDAR,-17.3520375,-63.2495436,"Av. Circunvalación Sur N° 764, entre Calles Warnes y 24 de Septiembre, Barrio San Ramón de la Víbora."
5609,ATM: 331 Tikillajta,Cajero Automático,Horario.SI,800103999,Tipo.ATM,SubTipo.ATM_ESPECIAL,-17.358568427632957,-66.17331166151232,"Av. Circunvalación, esq. Calle Tikallajta N° 3717, Zona Mayorazgo"
5605,ATM: 329 Pacata,Cajero Automático,Horario.SI,800103999,Tipo.ATM,SubTipo.ATM_ESPECIAL,-17.3732627383962,-66.1241268693667,"Av. Circunvalación, esq. Pedro Carrasco N° 125, Zona Pacata Baja, Municipio de Sacaba."
2,AGENCIA NORTE,Santa Cruz,Horario.NO,(591-3) 317-3000,Tipo.AGENCIA,SubTipo.AGENCIA_NORMAL,-17.75585425881337,-63.17784372230899,"Av. Cristo Redentor esq. Calle Monteniche, entre 3er y 4to. Anillo."
8705,ATM: 156 Hipermaxi Norte,Cajero Automático,Horario.SI,800103999,Tipo.ATM,SubTipo.ATM_ESTANDAR,-17.759958460826294,-63.17836839632988,"Av. Cristo Redentor, 3er Anillo Interno, Supermercado Hipermaxi Norte"
1698,ATM: 412 Surtidor Rivero,Cajero Automático,Horario.SI,800-103999,Tipo.ATM,SubTipo.ATM_ESTANDAR,-17.762504579694912,-63.18064548309269,"Av. Cristo Redentor, Esq, Calle Medardo Chavez, entre 2do, y 3er, Anillo."
6414,ATM: 521 Sala Ferbo IV,Cajero Automático,Horario.SI,800103999,Tipo.ATM,SubTipo.ATM_ESPECIAL,-17.736286144353073,-63.170145434455385,"Av. Cristo Redentor, entre 5to. y 6to. Anillo, esq. Av. San Silvestre."
8807,ATM: 241 Hipermaxi Supercenter,Cajero Automático,Horario.SI,800103999,Tipo.ATM,SubTipo.ATM_ESTANDAR,-17.728234358203526,-63.16645382559484,"Av. Cristo Redentor, entre 6to. y 7mo. Anillo, Zona Norte, Supermercado Hipermaxi Supercenter"
5132,ATM: 460 Auto ATM Barrio Ferbo-II,Cajero Automático,Horario.SI,800103999,Tipo.ATM,SubTipo.ATM_L,-17.73626550064777,-63.170028742838916,"Av. Cristo Redentor, entre el 5to. y 6to. Anillo, esq. Av. San Silvestre, Barrio Ferbo de la Zona Norte."
5130,ATM: 459 Auto ATM Barrio Ferbo-I,Cajero Automático,Horario.SI,800103999,Tipo.ATM,SubTipo.ATM_L,-17.73626390394739,-63.17003008394342,"Av. Cristo Redentor, entre el 5to. y 6to. Anillo, esq. Av. San Silvestre, Barrio Ferbo de la Zona Norte."
5254,ATM: 461 Auto ATM Barrio Ferbo-III,Cajero Automático,Horario.SI,800103999,Tipo.ATM,SubTipo.ATM_L,-17.73627802293019,-63.17002876356392,"Av. Cristo Redentor, entre el 5to. y 6to. Anillo, esq. Av. San Silvestre, Barrio Ferbo de la Zona Norte."
4684,ATM: 454 Auto Atm Agencia Norte,Cajero Automático,Horario.SI,80010399,Tipo.ATM,SubTipo.ATM_L,-17.75577299080946,-63.17815451577454,"Av. Cristo Redentor, equina Calle Monteniche, entre 3er y 4to. Anillo."
6416,ATM: 522 Especial Sala Ferbo,Cajero Automático para Discapacitados,Horario.SI,800103999,Tipo.ATM,SubTipo.DISCAPACITADOS,-17.736292488835375,-63.1700960504013,"Av. Cristo Redentor, esq. Av. San Silvestre, entre 5to. y 6to. Anillo."
9485,Kiosko de Autoservicio Ag. Norte,Kiosko de Autoservicio,Horario.NO,3173000,Tipo.ATM,SubTipo.KIOSCO,-17.75574352882005,-63.177971365572276,"Av. Cristo Redentor, esq. Calle Monteniche, entre 3er y 4to Anillo"
9481,Kiosko de Autoservicio Ag. Norte II,Kiosko de Autoservicio,Horario.NO,3173000,Tipo.ATM,SubTipo.KIOSCO,-17.75574352882005,-63.177971365572276,"Av. Cristo Redentor, esq. Calle Monteniche, entre 3er y 4to Anillo"
1692,ATM: 411 Jugueteria La Ganga,Cajero Automático,Horario.SI,800-103999,Tipo.ATM,SubTipo.ATM_ESTANDAR,-17.772333311553425,-63.18902953222539,"Av. Cristobal de Mendoza, 2do Anillo, Esquina Honduras"
6411,ATM: 519 Agencia Paragua II,Cajero Automático,Horario.SI,800103999,Tipo.ATM,SubTipo.ATM_ESPECIAL,-17.764815,-63.1494128,"Av. Cuarto Anillo, Esquina Av. Paragua."
8626,ATM: 571 Cumavi II,Cajero Automático,Horario.SI,800103999,Tipo.ATM,SubTipo.ATM_ESTANDAR,-17.7922031,-63.1311152,Av. Cumavi 3 cuadras antes de la Av. 16 de Julio
8644,ATM: 743 Chasquipampa,Cajero Automático,Horario.SI,800103999,Tipo.ATM,SubTipo.ATM_ESTANDAR,-16.5365413,-68.04630999999999,"Av. Defensores del Chaco N° 90, Zona Chasquipampa"
8799,ATM: 402 Hospital Obrero,Cajero Automático,Horario.SI,800103999,Tipo.ATM,SubTipo.ATM_ESTANDAR,-17.7671843,-63.15656749999999,"Av. Del Japón Esq. Ponce León, 3er Anillo Externo, frente al Hospital Obrero, entre Av. Paragua y Av. Mutualista."
6953,ATM: 526 Autocajero I California,Cajero Automático,Horario.SI,800103999,Tipo.ATM,SubTipo.ATM_L,-17.8213253,-63.21848060000001,"Av. Doble Vía La Guardia entre 5to y 6to Anillo, Esq. Calle San Francisco, Barrio California,"
6955,ATM: 527 California Autocajero II,Cajero Automático,Horario.SI,800103999,Tipo.ATM,SubTipo.ATM_L,-17.8213253,-63.21848060000001,"Av. Doble Vía La Guardia entre 5to y 6to Anillo, Esq. Calle San Francisco, Barrio California,"
6957,ATM: 528 Sala California III,Cajero Automático,Horario.SI,800103999,Tipo.ATM,SubTipo.ATM_ESPECIAL,-17.8213253,-63.21848060000001,"Av. Doble Vía La Guardia entre 5to y 6to Anillo, Esq. Calle San Francisco, Barrio California,"
6959,ATM: 529 Especial Sala California,Cajero Automático para Discapacitados,Horario.SI,800103999,Tipo.ATM,SubTipo.DISCAPACITADOS,-17.8213253,-63.21848060000001,"Av. Doble Vía La Guardia, Esq. Calle San Francisco, entre 5to y 6to Anillo, Barrio California."
8195,ATM: 542 Hipermaxi La Guardia Km.12,Cajero Automático,Horario.SI,800103999,Tipo.ATM,SubTipo.ATM_ESTANDAR,-17.8674309,-63.27154590000001,"Av. Doble Vía La Guardia, Km. 12, Supermercado Hipermaxi."
8868,ATM: 445 Hipermaxi Mutualista,Cajero Automático,Horario.SI,800103999,Tipo.ATM,SubTipo.ATM_ESTANDAR,-17.7656935,-63.15951390000001,"Av. Doctor Lucas Saucedo, 3er. Anillo Interno, entre la Av. Mutualista y Av. Paragua, Supermercado Hipermaxi"
26,ATM: 256 Agencia Mutualista II,Cajero Automático,Horario.SI,800-103999,Tipo.ATM,SubTipo.ATM_ESPECIAL,-17.762925,-63.1633722222222,"Av. Dr. Lucas Saucedo Nº 1050, 3er anillo interno entre calles Sandía y Buena Vista."
6232,ATM: 346 IC Norte Dorbigny,Cajero Automático,Horario.NO,800103999,Tipo.ATM,SubTipo.ATM_ESTANDAR,-17.3882669792972,-66.1794202,"Av. D¿Orbigny, Esq. Av. Melchor Perez de Olguin, Shopping IC Norte."
5914,ATM: 337 Aldea SOS,Cajero Automático,Horario.SI,800103999,Tipo.ATM,SubTipo.ATM_ESTANDAR,-17.35095880611025,-66.1928166170432,Av. Ecológica N° 250 casi esquina Av. Linde.
8578,ATM: 561 Los Pocitos,Cajero Automático,Horario.SI,800103999,Tipo.ATM,SubTipo.ATM_ESTANDAR,-17.841449,-63.1099742,"Av. El Paurito, Surtidor Los Pocitos, Zona del mercado Los Pocitos"
7779,ATM: 487 El Remanso,Cajero Automático,Horario.SI,800103999,Tipo.ATM,SubTipo.ATM_ESTANDAR,-17.714591992173236,-63.16874021801656,"Av. El Remanso, 8vo. Anillo N° 9005."
8617,ATM: 468 Especial Madre india,Cajero Automático,Horario.SI,800103999,Tipo.ATM,SubTipo.ATM_ESPECIAL,-17.7976233,-63.17459769999999,"Av. El trompillo, Esq. Av. Argentina, 2do. Anillo, Sala de Autoservicios."
5179,ATM: 469 Autocajero Madre India,Cajero Automático,Horario.SI,800103999,Tipo.ATM,SubTipo.ATM_L,-17.797773304367695,-63.174668985159684,"Av. El trompillo, esquina Avenida Argentina, 2do. Anillo."
8943,ATM: 366 Embol Quillacollo,Cajero Automático,Horario.SI,800103999,Tipo.ATM,SubTipo.ATM_ESTANDAR,-17.3896382,-66.25096479999999,"Av. Elias Meneses S/N. Quillacollo, Instalaciones de EMBOL Planta Cochabamba"
159,ATM: 314 Villazon,Cajero Automático,Horario.SI,800-103999,Tipo.ATM,SubTipo.ATM_ESTANDAR,-17.3754166667,-66.1292194444,"Av. Eliodoro Villazon km.2.5, Rotonda Servicio de Caminos, Carretera a Sacaba."
8642,ATM: 361 Hipermaxi Sacaba,Cajero Automático,Horario.SI,800103999,Tipo.ATM,SubTipo.ATM_ESTANDAR,-17.3822906,-66.11889719999999,"Av. Eliodoro Villazón Km. 3, s/n."
6139,ATM: 216 Mercado Young,Cajero Automático,Horario.SI,800103999,Tipo.ATM,SubTipo.ATM_ESPECIAL,-17.97934044706402,-67.1306160075226,Av. España entre Av. Dehene y Calle Salamanca.
118,ATM: 289 Villa San Antonio,Cajero Automático,Horario.SI,800-103999,Tipo.ATM,SubTipo.ATM_ESTANDAR,-16.4956316,-68.1162843,"Av. Esteban Arce N° 1827, Cruce Villa San Antonio, Villa Copacabana."
7973,ATM: 740 Achumani Sala II,Cajero Automático,Horario.SI,800103999,Tipo.ATM,SubTipo.ATM_ESTANDAR,-16.531581016727753,-68.07307205871138,"Av. Garcia Lanza N°18, entre Calles 15 y 16, Zona Achumani."
7975,ATM: 738 AutoCajero Achumani,Cajero Automático,Horario.SI,800103999,Tipo.ATM,SubTipo.ATM_ESPECIAL,-16.531449853581382,-68.07281855039206,"Av. Garcia Lanza N°18, entre Calles 15 y 16, Zona Achumani."
7971,ATM: 739 I Sala Achumani,Cajero Automático,Horario.SI,800103999,Tipo.ATM,SubTipo.ATM_ESPECIAL,-16.53157865566002,-68.07297143282138,"Av. Garcia Lanza N°18, entre Calles 15 y 16, Zona Achumani."
76,ATM: 272 Depositario Agencia Grigota,Cajero Automático,Horario.SI,800-103999,Tipo.ATM,SubTipo.ATM_ESPECIAL,-17.799406086504376,-63.19376299213859,"Av. Grigota N° 163, entre 2do y 3er Anillo, Zona El Pary UV-28, Mz-5"
6409,ATM: 520 Agencia Grigota II,Cajero Automático,Horario.SI,800103999,Tipo.ATM,SubTipo.ATM_ESPECIAL,-17.799457716670293,-63.193837108080494,"Av. Grigotá N° 163, entre 2do. y 3er. Anillo, Zona El Pari."
9537,Kiosko de Autoservicio Ag. Grigota,Kiosco de Autoservicio,Horario.NO,3 173000,Tipo.ATM,SubTipo.KIOSCO,-17.79935590677373,-63.192856538097125,"Av. Grigotá N° 163, entre 2do y 3er Anillo, Zona El Pary"
9487,Kiosko de Autoservicio Ag. Grigota II,Kiosko de Autoservicio,Horario.NO,3173000,Tipo.ATM,SubTipo.KIOSCO,-17.799263969258554,-63.193328606883746,"Av. Grigotá N° 163, entre 2do y 3er Anillo, Zona El Pary"
5,AGENCIA GRIGOTÁ,Santa Cruz,Horario.NO,(591-3) 317-3000,Tipo.AGENCIA,SubTipo.AGENCIA_B,-17.79945,-63.1938222222,"Av. Grigotá N°163, entre 2do y 3er Anillo, Zona El Pari."
8641,ATM: 360 Av. Villarroel,Cajero Automático,Horario.SI,800103999,Tipo.ATM,SubTipo.ATM_ESTANDAR,-17.3694329,-66.1586342,"Av. Gualberto Villarroel N° 2030, casi ciclovía acera este."
111,ATM: 281 Calle 16 de Obrajes,Cajero Automático,Horario.SI,800-103999,Tipo.ATM,SubTipo.ATM_ESTANDAR,-16.5296098,-68.10212489999999,Av. Hernando Siles N° 6204 Esq Calle 16 de Obrajes.
8918,ATM: 725 Héroes del Pacífico,Cajero Automático,Horario.SI,800103999,Tipo.ATM,SubTipo.ATM_ESPECIAL,-16.494683,-68.1219115,"Av. Héroes del Pacifico, entre Av. Estados Unidos y Av. Busch, Zona Miraflores."
116,ATM: 286 Illampu,Cajero Automático,Horario.SI,800-103999,Tipo.ATM,SubTipo.ATM_ESTANDAR,-16.494970057171184,-68.14043478129263,"Av. Illampu N° 670, Zona el Rosario."
8878,ATM: 363 Av. Ingavi,Cajero Automático,Horario.SI,800103999,Tipo.ATM,SubTipo.ATM_ESTANDAR,-17.4018501,-66.1825905,"Av. Ingavi N° 2470, entre la Av. Melchor Perez Olguin y Calle De Los Arces, diagonal al Surtidor Cochabamba"
63,ATM: 255 Av. Irala,Cajero Automático,Horario.SI,800-103999,Tipo.ATM,SubTipo.ATM_ESTANDAR,-17.792059039709162,-63.180103069676306,"Av. Irala N° 470 casi esquina Rene Moreno, al lado de la Clínica Angel Foianini, sobre el 1er anillo"
9493,Kiosko de Autoservicio Mapaiso Sur,Kiosco de Autoservicio,Horario.NO,3173000,Tipo.ATM,SubTipo.KIOSCO,-17.79318885848211,-63.18510831048899,Av. Irala N°711
6133,ATM: 224 El Reloj,Cajero Automático,Horario.SI,800103999,Tipo.ATM,SubTipo.ATM_ESPECIAL,-19.03920134878457,-65.2537026854959,"Av. Jaime Mendoza N° 1597, Zona el Reloj."
8632,ATM: 568 Hospital Japonés,Cajero Automático,Horario.SI,800103999,Tipo.ATM,SubTipo.ATM_ESTANDAR,-17.773262,-63.1539344,"Av. Japón N° 3565, 3er Anillo Externo, entre Av. Paragua y Av. Guapay"
2239,ATM: 319 Hipermaxi El Prado Cbba.,Cajero Automático,Horario.SI,800-103999,Tipo.ATM,SubTipo.ATM_ESTANDAR,-17.3841739576,-66.1588958272,"Av. José Ballivián N° 753, Supermercado Hipermaxi El Prado."
6226,ATM: 513 Polanco,Cajero Automático,Horario.SI,800103999,Tipo.ATM,SubTipo.ATM_ESPECIAL,-17.801662288579227,-63.161639776750405,"Av. Juan Pablo II N°3300, 3er. Anillo Interno, Barrio Polanco, entre Radial 10 y Av. San Aurelio."
8197,ATM: 741 Multicine El Alto,Cajero Automático,Horario.NO,800103999,Tipo.ATM,SubTipo.ATM_ESPECIAL,-16.4915197,-68.2039551,"Av. Juan Pablo II, Zona Rio Seco, Multicine, El Alto"
156,ATM: 311 Surtidor El Cristo Cbba - Depositario,Cajero Automático,Horario.SI,800-103999,Tipo.ATM,SubTipo.ATM_ESPECIAL,-17.3786722222222,-66.1656111111111,"Av. Juan de la Rosa No. 0536 frente a la plazuela las Palmas, rotonda del Surtidor El Cristo en Cochabamba"
8638,ATM: 565 La Campana,Cajero Automático,Horario.SI,800103999,Tipo.ATM,SubTipo.ATM_ESTANDAR,-17.8189678,-63.1186264,"Av. La Campana, Esq. Av. 10 de Octubre"
9574,Kiosko de Autoservicio Ag. Fatima,Kiosko de Autoservicio,Horario.NO,3173000,Tipo.ATM,SubTipo.KIOSCO,-21.536898486491392,-64.72622770438595,Av. La Paz N° 495 entre Av. José Manuel Belgrano y Delfin Pino
8327,ATM: 231 Agencia Fátima,Cajero Automático,Horario.SI,800103999,Tipo.ATM,SubTipo.ATM_ESPECIAL,-21.5381733375263,-64.72414941244917,"Av. La Paz N° 495, entre Av. Jose Manuel Belgrano y Delfín Pino"
143,AGENCIA FÁTIMA,Tarija,Horario.NO,(591-4) 665-4000,Tipo.AGENCIA,SubTipo.AGENCIA_NORMAL,-21.53816154463264,-64.72413466029957,Av. La Paz Nº495 entre Av. José Manuel Belgrano y Delfin Pino (Ba. Villa Fátima).
5614,ATM: 703 Plaza El Cóndor,Cajero Automático,Horario.SI,800103999,Tipo.ATM,SubTipo.ATM_ESTANDAR,-16.50902571282728,-68.13539933487375,"Av. Landaeta N° 793, Plaza El Cóndor, Zona San Pedro Alto."
41,ATM: 158 Country Club Las Palmas,Cajero Automático,Horario.SI,800-103999,Tipo.ATM,SubTipo.ATM_ESTANDAR,-17.8031527778,-63.2067638889,"Av. Las Palmas, Country Club Las Palmas"
6284,ATM: 236 SENAC,Cajero Automático,Horario.SI,800103999,Tipo.ATM,SubTipo.ATM_ESTANDAR,-21.539605453040462,-64.74559201639404,"Av. Los Ceibos, Esq. Av. Julio Arce, Zona Senac."
6280,ATM: 237 JUAN XXIII,Cajero Automático,Horario.SI,800103999,Tipo.ATM,SubTipo.ATM_ESPECIAL,-21.540313390176266,-64.71346912820701,"Av. M. Font, entre Av. Defensores del Chaco y Calle Porvenir."
5656,ATM: 710 COTEL,Cajero Automático,Horario.SI,800109999,Tipo.ATM,SubTipo.ATM_ESTANDAR,-16.49737771421428,-68.136417292126,"Av. Mariscal Santa Cruz Nº 980, Edificio Cotel, entre calles Cochabamba y Sagarnaga."
6374,ATM: 352 Tadeo Haenke,Cajero Automático,Horario.SI,800103999,Tipo.ATM,SubTipo.ATM_ESTANDAR,-17.381464385940312,-66.17621454820232,"Av. Melchor Perez N° 1250, Esq. Tadeo Haenke, Zona Sarco."
23,ATM: 155 Agencia El Cristo II,Cajero Automático,Horario.SI,800-103999,Tipo.ATM,SubTipo.ATM_ESTANDAR,-17.7716194444,-63.1826611111,Av. Monseñor Rivero Esquina Fortín Arce (Agencia El Cristo)
9524,Kiosko de Autoservicio Ag. El Cristo,Kiosco de Autoservicio,Horario.NO,3 173000,Tipo.ATM,SubTipo.KIOSCO,-17.771618953414738,-63.18283807486294,Av. Monseñor Rivero esq. Fortín Arce
9475,Kiosko de Autoservicio Ag. El Cristo II,Kiosko de Autoservicio,Horario.NO,3173000,Tipo.ATM,SubTipo.KIOSCO,-17.771618953414738,-63.18283807486294,Av. Monseñor Rivero esq. Fortín Arce
3,AGENCIA EL CRISTO,Santa Cruz,Horario.NO,(591-3) 317-3000,Tipo.AGENCIA,SubTipo.AGENCIA_B,-17.771655849678815,-63.18273545585027,Av. Monseñor Rivero esq. Fortín Arce.
8828,ATM: 150 Agencia El Cristo I,Cajero Automático,Horario.SI,800103999,Tipo.ATM,SubTipo.ATM_ESTANDAR,-17.767182944900103,-63.15654605253942,"Av. Monseñor Rivero, Esq. Calle Fortín Arce, Agencia El Cristo"
8830,ATM: 155 Ag El Cristo II,Cajero Automático,Horario.SI,800103999,Tipo.ATM,SubTipo.ATM_ESTANDAR,-17.7718367,-63.1826202,"Av. Monseñor Rivero, Esq. Calle Fortín Arce, Agencia El Cristo"
7849,ATM: 172 Depositario Ag. San Miguel,Cajero Automático,Horario.SI,800103999,Tipo.ATM,SubTipo.ATM_ESPECIAL,-16.54091173063929,-68.0804283913742,"Av. Montenegro N° 1223 Esquina Calle 18 Calacoto, Zona San Miguel."
9440,Kiosco de Autoservicio Ag. San Miguel,Kiosco de Autoservicio,Horario.NO,3 173000,Tipo.ATM,SubTipo.KIOSCO,-16.5408659778916,-68.0804121080537,Av. Montenegro N° 1223 esq. Calle 18 Calacoto
101,AGENCIA SAN MIGUEL,La Paz,Horario.NO,(591-2) 217-3000,Tipo.AGENCIA,SubTipo.AGENCIA_NORMAL,-16.540834665215854,-68.08043126603572,"Av. Montenegro N°1223 esq. Calle 18 Calacoto, Zona San Miguel."
8636,ATM: 566 Moscú 4to. Anillo,Cajero Automático,Horario.SI,800103999,Tipo.ATM,SubTipo.ATM_ESTANDAR,-17.8252829,-63.2015676,"Av. Moscú 4to. y 5to. Anillo, entre Calles 6 de Agosto y Pasillo Litoral."
7695,ATM: 493 Moscu 5to Anillo,Cajero Automático,Horario.SI,80010399,Tipo.ATM,SubTipo.ATM_ESPECIAL,-17.828182130967747,-63.2031320535242,"Av. Moscú N° 5058 y 5to. Anillo, Zona La Cuchilla, Frente al Surtidor Moragrande."
8038,ATM: 532 Hipermaxi Cambódromo,Cajero Automático,Horario.SI,800103999,Tipo.ATM,SubTipo.ATM_ESTANDAR,-17.7426794,-63.14452679999999,"Av. Mutualista, Esq. 6to. Anillo, Zona Cambódromo"
5625,ATM: 707 Cota Cota,Cajero Automático,Horario.SI,800103999,Tipo.ATM,SubTipo.ATM_ESTANDAR,-16.540794481039672,-68.06295964836033,"Av. Muñoz Reyes N° 22, entre Calles La Merced y 24 de Septiembre, Zona Cota Cota."
8945,ATM: 225 Embol Sucre,Cajero Automático,Horario.SI,800103999,Tipo.ATM,SubTipo.ATM_ESTANDAR,-19.557653,-65.73648299999999,"Av. Navarra, Zona ex Aeropuerto, Instalaciones de EMBOL Sucre"
6743,ATM: 523 Clínica Martin Dockweiler,Cajero Automático,Horario.SI,800103999,Tipo.ATM,SubTipo.ATM_ESTANDAR,-17.7669682,-63.1989251,"Av. Noel Kempff Mercado N° 705, 3er Anillo Interno, interior de la Clínica."
8562,ATM: 558 Paseo Boulevard,Cajero Automático,Horario.SI,800103999,Tipo.ATM,SubTipo.ATM_ESTANDAR,-17.7607622,-63.1879192,"Av. Noel Kempff Mercado, Esq. Radial 26, 3er. Anillo Interno, Paseo Blvd."
8544,ATM: 553 Saguapac El Palmar,Cajero Automático,Horario.SI,800103999,Tipo.ATM,SubTipo.ATM_ESTANDAR,-17.8612128,-63.1732202,"Av. Nuevo Palmar, Saguapac S.R.L."
5904,ATM: 342 Loreto,Cajero Automático,Horario.SI,800103999,Tipo.ATM,SubTipo.ATM_ESPECIAL,-17.4213412404479,-66.1580394149551,"Av. Panamericana, Iglesia Maria Auxiliadora, Villa Loreto."
6378,ATM: 350 Panamericana,Cajero Automático,Horario.SI,800103999,Tipo.ATM,SubTipo.ATM_ESPECIAL,-17.43324889316304,-66.16101117078212,"Av. Panamericana, s/n, Zona Lacma."
124,AGENCIA POMPEYA,Beni,Horario.NO,(591-3) 46-23777,Tipo.AGENCIA,SubTipo.AGENCIA_NORMAL,-14.840930153817661,-64.90411878017585,"Av. Pedro Ignacio Muiba esq. Calle Tarope, Zona Pompeya."
9448,Kiosko de Autoservicio Ag. Pompeya,Kiosko de Autoservicio,Horario.NO,3173000,Tipo.ATM,SubTipo.KIOSCO_S,-14.8409503756957,-64.9043504914077,"Av. Pedro Ignacio Muiba, esq. Calle Tarope, Zona Pompeya"
6035,ATM: 904 Ag. Pompeya,Cajero Automático,Horario.SI,800103999,Tipo.ATM,SubTipo.ATM_ESPECIAL,-14.840930153817661,-64.90411878017585,"Av. Pedro Ignacio Muiba, esq. Calle Tarope, Zona Pompeya."
8290,Oficina Externa Loreto,Oficina Externa,,800103999,Tipo.AGENCIA,SubTipo.AGENCIA_D,-15.1947888,-64.7592135,"Av. Pedro Marbán, Municipio de Loreto."
3191,ATM: 420 Universidad Ucebol,Cajero Automático,Horario.SI,800-103999,Tipo.ATM,SubTipo.ATM_ESTANDAR,-17.730971994644193,-63.169391500518124,"Av. Perimetral entre 6to, Anillo y Calle Las Palmas, Km, 5 1/2, Carretera al Norte."
6177,ATM: 726 Teleférico Estación Central,Cajero Automático,Horario.NO,800103999,Tipo.ATM,SubTipo.ATM_ESPECIAL,-16.491319570301012,-68.14462540437927,"Av. Perú, Estación Central, Teleferico Rojo."
8371,ATM: 742 Terminal de Buses LP,Cajero Automático,Horario.NO,800103999,Tipo.ATM,SubTipo.ATM_ESTANDAR,-16.4886881,-68.14165559999999,"Av. Perú, Instalaciones de la Terminal de Buses La Paz"
7698,ATM: 496 Mercado Abasto,Cajero Automático,Horario.SI,80010399,Tipo.ATM,SubTipo.ATM_ESPECIAL,-17.7937179409647,-63.20346819111714,"Av. Piraí N° 527 casi 3er. Anillo, Zona Mercado Abasto."
8556,ATM: 556 Supermarket Piraí,Cajero Automático,Horario.SI,800103999,Tipo.ATM,SubTipo.ATM_ESTANDAR,-17.8131894,-63.23094279999999,"Av. Piraí, 6to. Anillo, Supermarket Mercagusto"
4311,ATM: 447 Auto Atm Av. Pirai,Cajero Automático,Horario.SI,800103999,Tipo.ATM,SubTipo.ATM_L,-17.792451018493114,-63.199242043049594,"Av. Piraí, Nº 350, esquina Calle Chituri, entre 2do y 3er anillo."
8109,ATM: 443 Av. Pirai,Cajero Automático,Horario.SI,800103999,Tipo.ATM,SubTipo.ATM_ESTANDAR,-17.79232226272291,-63.19924236322937,"Av. Piraí, Nº 350, esquina Calle Chituri, entre 2do y 3er anillo."
8558,ATM: 557 Abasto Av. Piraí,Cajero Automático,Horario.SI,800103999,Tipo.ATM,SubTipo.ATM_ESTANDAR,-17.7954437,-63.20809930000001,"Av. Piraí, entre el 3er. y 4to. Anillo, casi Esq. Calle Rafael Aponte,"
17,AGENCIA LA BÉLGICA,Santa Cruz,Horario.NO,(591-3) 317-3000,Tipo.AGENCIA,SubTipo.AGENCIA_NORMAL,-17.5649388889,-63.2252416667,"Av. Principal La Bélgica, al lado de la Policía, Morotoco Chaco Colpa Arriba, Municipio Colpa Bélgica."
3849,ATM: 419 Surtidor Rivero Plan 3000,Cajero Automático,Horario.SI,800103999,Tipo.ATM,SubTipo.ATM_ESTANDAR,-17.8257288042453,-63.134176294167794,"Av. Principal Plan 3 Mil, Esq. Calle 9, Barrio 18 de Marzo."
8452,ATM: 546 Satélite Norte II,Cajero Automático,Horario.SI,800103999,Tipo.ATM,SubTipo.ATM_ESPECIAL,-17.6073253,-63.15530299999999,"Av. Principal Satélite Norte, entre Calles Cupesí y Jorori, UV. ST1, Mz-15, lote 27."
8113,ATM: 263 Agencia La Belgica,Cajero Automático,Horario.SI,800103999,Tipo.ATM,SubTipo.ATM_ESTANDAR,-17.5648494,-63.22514890000001,"Av. Principal de La Bélgica, al lado de la Policia, Morotoco Chaco, colpa arriba o La Bélgica, Municipio Colpa Bélgica, 3ra sección de la Provincia Sara."
6370,ATM: 735 Pérez Velasco,Cajero Automático,Horario.SI,800103999,Tipo.ATM,SubTipo.ATM_ESPECIAL,-16.49357903334221,-68.13734339388758,Av. Pérez Velasco casi esq. Calle Serrano.
8063,ATM: 537 Farmacorp Radial 10,Cajero Automático,Horario.SI,800103999,Tipo.ATM,SubTipo.ATM_ESPECIAL,-17.8122991,-63.13635509999999,"Av. Radial 10 esquina 6to anillo, instalaciones de Farmacorp."
8871,ATM: 279 La Barranca,Cajero Automático,Horario.SI,800103999,Tipo.ATM,SubTipo.ATM_ESTANDAR,-16.499099,-68.142800000001,"Av. Radial 12, esq. 3er Anillo Interno, Zona La Barranca."
5813,ATM: 333 Reducto,Cajero Automático,Horario.SI,800103999,Tipo.ATM,SubTipo.ATM_ESPECIAL,-17.3913277,-66.2385946,"Av. Reducto, esq. Av. Blanco Galindo, Colcapirhua, Quillacollo, Acera Sureste."
9477,Kiosko de Autoservicio Ag. Roca y Coronado II,Kiosko de Autoservicio,Horario.NO,3173000,Tipo.ATM,SubTipo.KIOSCO,-17.784447689646836,-63.19517238175298,"Av. Roca y Coronado N° 9, 2do Anillo, Zona Oeste"
9501,Kiosko de Autoservicio Ag. Roca y Coronado,Kiosco de Autoservicio,Horario.NO,3 173000,Tipo.ATM,SubTipo.KIOSCO,-17.784447689646836,-63.19517238175298,"Av. Roca y Coronado N° 9, 2do Anillo, Zona Oeste"
4,AGENCIA ROCA Y CORONADO,Santa Cruz,Horario.NO,(591-3) 317-3000,Tipo.AGENCIA,SubTipo.AGENCIA_B,-17.78459436572118,-63.195451399085606,"Av. Roca y Coronado Nº9, 2do Anillo."
8678,ATM: 262 Hipermaxi Roca y Coronado,Cajero Automático,Horario.SI,800103999,Tipo.ATM,SubTipo.ATM_ESTANDAR,-17.7853666666667,-63.2120222222222,"Av. Roca y Coronado, Esq. Calle Francisco Bernachi, entre 3er y 4to Anillo, Supermercado Hipermaxi"
6222,ATM: 511 Alto San Pedro,Cajero Automático,Horario.SI,800103999,Tipo.ATM,SubTipo.ATM_ESPECIAL,-17.811514888947467,-63.18939544417662,"Av. Roque Aguilera, diagonal al mercado Alto San Pedro, Capilla San Pedro Apóstol"
6236,ATM: 518 Saguapac,Cajero Automático,Horario.NO,800103999,Tipo.ATM,SubTipo.ATM_ESTANDAR,-17.801955153083718,-63.185881511243146,"Av. Río Grande Nº 2323, Instalaciones de SAGUAPAC."
5959,ATM: 713 Saavedra,Cajero Automático,Horario.SI,800103999,Tipo.ATM,SubTipo.ATM_ESTANDAR,-16.506148710841302,-68.12013848863172,"Av. Saavedra y Claudio Sanjinez, frente a la Parroquia Virgen de Remedios."
29,ATM: 253 Hamburguesas TOBY,Cajero Automático,Horario.SI,800-103999,Tipo.ATM,SubTipo.ATM_ESTANDAR,-17.799106127969885,-63.169082915375824,"Av. San Aurelio, Esq. Av. El Trompillo, 2do. Anillo"
9503,Kiosko de Autoservicio Ag. Equipetrol,Kiosco de Autoservicio,Horario.NO,3 173000,Tipo.ATM,SubTipo.KIOSCO,-17.76727554858122,-63.193864082225055,Av. San Martin Calle 5 Oeste
4405,Kiosco Smart Sala de Autoservicios San Martin,Maquina dispensadora de Tarjeta de Débito,Horario.SI,800103999,Tipo.ATM,SubTipo.KIOSCO,-17.760359432985254,-63.198842393906375,"Av. San Martin, esquina Calle Los Lirios, Zona Sirari."
4598,ATM: 451 San Martin I,Cajero Automático,Horario.SI,800103999,Tipo.ATM,SubTipo.ATM_ESPECIAL,-17.76039008550316,-63.198858487160464,"Av. San Martin, esquina Calle Los Lirios, Zona Sirari."
4599,ATM: 452 San Martin II,Cajero Automático,Horario.SI,800103999,Tipo.ATM,SubTipo.ATM_ESPECIAL,-17.76039774863182,-63.198837029488345,"Av. San Martin, esquina Calle Los Lirios, Zona Sirari."
4600,ATM: 450 Auto San Martin III,Cajero Automático,Horario.SI,800103999,Tipo.ATM,SubTipo.ATM_L,-17.760565060192288,-63.19884507611539,"Av. San Martin, esquina Calle Los Lirios, Zona Sirari."
5910,ATM: 335 Santa Cruz,Cajero Automático,Horario.SI,800103999,Tipo.ATM,SubTipo.ATM_ESTANDAR,-17.375176708529658,-66.15682260241833,"Av. Santa Cruz N° 1390, esquina Av. Portales."
5578,ATM: 473 Cotoca,Cajero Automático,Horario.SI,800103999,Tipo.ATM,SubTipo.ATM_ESPECIAL,-17.754943851503054,-62.99654713253113,"Av. Santa Cruz N° 61 entre Defensores del Acre y Av. Bolivar, frente a la Catedral del Municipio de Cotoca."
6207,ATM: 516 Agencia Minero I,Cajero Automático,Horario.SI,800103999,Tipo.ATM,SubTipo.ATM_ESTANDAR,-17.123761581050587,-63.2310861113922,Av. Santa Cruz entre Calles Avaroa y Murillo.
6209,ATM: 517 Agencia Minero II,Cajero Automático,Horario.SI,800103999,Tipo.ATM,SubTipo.ATM_ESTANDAR,-17.123761581050587,-63.23106465372008,Av. Santa Cruz entre Calles Avaroa y Murillo.
32,ATM: 146 Hipermaxi Sur Santos D.,Cajero Automático,Horario.SI,800-103999,Tipo.ATM,SubTipo.ATM_ESTANDAR,-17.8133777778,-63.1842416667,"Av. Santos Doumont, 3er Anillo."
65,ATM: 258 Av. Santos Dumont,Santa Cruz,Horario.SI,800-103999,Tipo.ATM,SubTipo.ATM_ESPECIAL,-17.8159916667,-63.1829944444,"Av. Santos Dumont N? 1200 Esq. Calle Augusto Zambrano, entre 3er y 4to Anillo."
8806,ATM: 258 Ag. Santos Dumont I,Cajero Automático,Horario.SI,800103999,Tipo.ATM,SubTipo.ATM_ESTANDAR,-17.7671843,-63.15656749999999,"Av. Santos Dumont N° 1200 Esq. Calle Augusto Zambrano, entre 3er y 4to Anillo."
9491,Kiosko de Autoservicio Ag. Santos Dumont,Kiosko de Autoservicio,Horario.NO,3173000,Tipo.ATM,SubTipo.KIOSCO,-17.816012188525654,-63.1828274749521,"Av. Santos Dumont N° 1200 esq. Calle Augusto Zambrano, entre 3er y 4to Anillo"
9497,Kiosko de Autoservicio Ag. Santos Dumont II,Kiosko de Autoservicio,Horario.NO,3173000,Tipo.ATM,SubTipo.KIOSCO,-17.816012188525654,-63.1828274749521,"Av. Santos Dumont N° 1200 esq. Calle Augusto Zambrano, entre 3er y 4to Anillo"
6,AGENCIA SANTOS DUMONT,Santa Cruz,Horario.NO,(591-3) 317-3000,Tipo.AGENCIA,SubTipo.AGENCIA_B,-17.816002885727258,-63.18303532953247,"Av. Santos Dumont N°1200 esq. Calle Augusto Zambrano, entre 3er y 4to Anillo."
8866,ATM: 146 Hipermaxi Sur Santos Dumont,Cajero Automático,Horario.SI,800103999,Tipo.ATM,SubTipo.ATM_ESTANDAR,-17.8132896,-63.1842424,"Av. Santos Dumont, entre Av. Roque Aguilera y Av. Mario R. Gutierrez, 3er Anillo, Supermercado Hipermaxi"
8861,ATM: 146 Hipermaxi Sur Santos Dumont,Cajero Automático,Horario.SI,800103999,Tipo.ATM,SubTipo.ATM_ESTANDAR,-17.8132896,-63.1842424,"Av. Santos Dumont, entre Av. Roque Aguilera y Av. Mario R. Gutierrez, 3er Anillo, Supermercado Hipermaxi"
8630,ATM: 569 Santos Dumont 5to Anillo,Cajero Automático,Horario.SI,800103999,Tipo.ATM,SubTipo.ATM_ESTANDAR,-17.8325575,-63.18479910000001,"Av. Santos Dumont, rotonda 5to. Anillo"
7692,ATM: 492 Satelite,Cajero Automático,Horario.SI,80010399,Tipo.ATM,SubTipo.ATM_ESPECIAL,-17.60428249425765,-63.1388268442862,"Av. Satélite Norte N° 101, esquina Calle 30."
5953,ATM: 723 Cruce Viacha,Cajero Automático,Horario.SI,800103999,Tipo.ATM,SubTipo.ATM_ESPECIAL,-16.516707361052912,-68.16509669552683,"Av. Satélite y Av. Franco Valle, El Alto."
6228,ATM: 510 Metal Mec,Cajero Automático,Horario.SI,800103999,Tipo.ATM,SubTipo.ATM_ESTANDAR,-17.734767400678287,-63.15998545912728,"Av. Sexto Anillo N°18, Esq. Av. Beni, Barrio Metal-Mec,"
7219,ATM: 531 Clínica Las Américas,Cajero Automático,Horario.SI,800103999,Tipo.ATM,SubTipo.ATM_ESTANDAR,-17.7351566,-63.1623552,"Av. Sexto Anillo, Esq. Av. Beni."
6060,ATM: 905 Av. Bolivar,Cajero Automático,Horario.SI,800103999,Tipo.ATM,SubTipo.ATM_ESTANDAR,-14.830523744424433,-64.89542957127227,"Av. Simón Bolivar, casi esq. Alberto Reyes Davi, Zona el Carmen."
4457,ATM: 320 Simón López,Cochabamba,Horario.SI,800103999,Tipo.ATM,SubTipo.ATM_ESTANDAR,-17.361178787232948,-66.1820204922222,"Av. Simón López N° 1594, Esq. Av. Sumaj Llajta."
5922,ATM: 341 Suecia,Cajero Automático,Horario.SI,800103999,Tipo.ATM,SubTipo.ATM_ESTANDAR,-17.419270980987616,-66.1471700472908,"Av. Suecia N° 1047, frente al Hospital Harry William."
6214,ATM: 515 Agencia Pando I,Cajero Automático,Horario.SI,800103999,Tipo.ATM,SubTipo.ATM_ESPECIAL,-11.018675401331757,-68.75332040327385,Av. Tcnl. Enrique Fernandez Cornejo N° 096.
9572,Kiosko de Autoservicio Ag. Pando,Kiosko de Autoservicio,Horario.NO,3173000,Tipo.ATM,SubTipo.KIOSCO,-11.0185905841996,-68.7535778491509,Av. Tcnl. Enrique Fernández Cornejo N° 096
133,AGENCIA PANDO,Pando,Horario.NO,(591-3) 8420182,Tipo.AGENCIA,SubTipo.AGENCIA_NORMAL,-11.018679562382543,-68.75330555398465,"Av. Tcnl. Enrique Fernández Cornejo N°096, Cobija."
33,ATM: 141 Hipermaxi 3 Pasos al Frente,Cajero Automático,Horario.SI,800-103999,Tipo.ATM,SubTipo.ATM_ESTANDAR,-17.795254433595403,-63.16105402962128,"Av. Tres Pasos al Frente, Esq. Calle Pedro Marban, 3er Anillo."
4697,ATM: 453 Depositario UNAGRO,Cajero Automático,Horario.SI,800103999,Tipo.ATM,SubTipo.ATM_ESPECIAL,-17.11258461038177,-63.245075274694976,"Av. Unagro Final, S/N., Zona del Ingenio UNAGRO, Carretera Mineros."
8719,ATM: 251 Macro Fidalga,Cajero Automático,Horario.SI,800103999,Tipo.ATM,SubTipo.ATM_ESTANDAR,-17.7769196,-63.1731648,"Av. Uruguay N° 733, 1er. Anillo del Avión Pirata, Zona El Paraiso, Parqueo del Supermercado Macro Fidalga"
4403,Kiosco Smart Ag. Blacutt,Maquina dispensadora de Tarjeta de Débito,Horario.SI,800103999,Tipo.ATM,SubTipo.KIOSCO,-17.794868285561574,-63.18082331374433,Av. Velarde Esq. Andrés Manso Nº 200 (Exterior de nuestra Agencia Blacutt).
9528,Kiosko de Autoservicio Ag. Blacutt II,Kiosco de Autoservicio,Horario.NO,3 173000,Tipo.ATM,SubTipo.KIOSCO,-17.794937200892605,-63.18076128514669,"Av. Velarde esq. Andrés Manso N° 200, Plaza Blacutt"
9514,Kiosko de Autoservicio Ag. Blacutt,Kiosco de Autoservicio,Horario.NO,3 173000,Tipo.ATM,SubTipo.KIOSCO,-17.794905121026282,-63.180681281175644,"Av. Velarde esq. Andrés Manso N° 200, Plaza Blacutt"
7,AGENCIA BLACUTT,Santa Cruz,Horario.NO,(591-3) 317-3000,Tipo.AGENCIA,SubTipo.AGENCIA_B,-17.794951819662653,-63.180782457456864,"Av. Velarde esq. Andrés Manso Nº200, Plaza Blacutt."
5932,ATM: 718 Cotahuma,Cajero Automático,Horario.SI,800103999,Tipo.ATM,SubTipo.ATM_ESPECIAL,-16.515426966478884,-68.14008029720242,Av. Victor Agustín Ugarte esq. Av. Jaime Zudañez.
8576,ATM: 560 Montero Nor Oeste,Cajero Automático,Horario.SI,800103999,Tipo.ATM,SubTipo.ATM_ESTANDAR,-17.3245949,-63.2660731,"Av. Victor Paz Estensoro N° 785, Dist 2, UV 34, Mza 2, Lote 16, Montero"
6124,ATM: 508 Ag. Viedma I,Cajero Automático,Horario.SI,800103999,Tipo.ATM,SubTipo.DISCAPACITADOS,-17.789350779402103,-63.171725779337564,Av. Viedma Esquina Av. Saavedra Nº 780
9520,Kiosko de Autoservicio Ag. Viedma,Kiosco de Autoservicio,Horario.NO,3 173000,Tipo.ATM,SubTipo.KIOSCO,-17.788966892745158,-63.1706326804254,Av. Viedma esq. Calle Saavedra N° 780
8,AGENCIA VIEDMA,Santa Cruz,Horario.NO,(591-3) 317-3000,Tipo.AGENCIA,SubTipo.AGENCIA_NORMAL,-17.78910470445951,-63.171580553054085,Av. Viedma esq. Calle Saavedra Nº780.
8061,ATM: 217 Embol Oruro,Cajero Automático,Horario.SI,800103999,Tipo.ATM,SubTipo.ATM_ESTANDAR,-17.9612054,-67.1043334,"Av. Villarroel entre calles Backovic y Brasil, frente a la Ex terminal."
5607,ATM: 330 Quintanilla,Cajero Automático,Horario.SI,800103999,Tipo.ATM,SubTipo.ATM_ESPECIAL,-17.383444350758776,-66.1106470583242,"Av. Villazón N° 4415, Zona Quintanilla, Municipio de Sacaba."
9,AGENCIA VIRGEN DE COTOCA,Santa Cruz,Horario.NO,(591-3) 317-3000,Tipo.AGENCIA,SubTipo.AGENCIA_NORMAL,-17.77063328955935,-63.122816182591606,"Av. Virgen de Cotoca 6to. Anillo esq. Vía Ferrea, N°10, Zona Pampa de la Isla."
9505,Kiosko de Autoservicio Mapaiso,Kiosko de Autoservicio,Horario.NO,3173000,Tipo.ATM,SubTipo.KIOSCO,-17.76735477534534,-63.114508257147236,Av. Virgen de Cotoca esq. Av Montecristo
1008,ATM: 277 Surtidor Virgen de Cotoca,Cajero Automático,Horario.SI,800-103999,Tipo.ATM,SubTipo.ATM_ESTANDAR,-17.7823055555556,-63.1633833333333,"Av. Virgen de Cotoca esq. Av. Perimetral a 1 cuadra del 2do. Anillo, Instalaciones de Farmacorp."
8740,ATM: 247 Hipermaxi Pampa de la Isla,Cajero Automático,Horario.SI,800103999,Tipo.ATM,SubTipo.ATM_ESTANDAR,-17.7716639,-63.12457010000001,"Av. Virgen de Cotoca, 6to. Anillo, Supermercado Hipermaxi Pampa de la Isla"
8542,ATM: 550 Biopetrol Montecristo,Cajero Automático,Horario.SI,800103999,Tipo.ATM,SubTipo.ATM_ESTANDAR,-17.7667192,-63.11003150000001,"Av. Virgen de Cotoca, 8vo. Anillo, Surtidor Biopetrol"
8552,ATM: 552 Carlos Caballero,Cajero Automático,Horario.SI,800103999,Tipo.ATM,SubTipo.ATM_ESTANDAR,-17.7740517,-63.13073259999999,"Av. Virgen de Cotoca, Mz. 42, Metalúrgica Carlos Caballero S.A."
7764,ATM: 479 Virgen de Cotoca 4to Anillo,Cajero Automático,Horario.SI,800103999,Tipo.ATM,SubTipo.ATM_ESTANDAR,-17.78031004853368,-63.14703014897477,"Av. Virgen de Cotoca, rotonda del 4to. Anillo."
7773,ATM: 484 Virgen de Lujan,Cajero Automático,Horario.SI,800103999,Tipo.ATM,SubTipo.ATM_ESTANDAR,-17.745132633109566,-63.118881137721054,Av. Virgen de Lujan N° 6710 entre 6to. y 7mo. Anillo.
137,ATM: 222 Las Américas,Chuquisaca,Horario.SI,800-103999,Tipo.ATM,SubTipo.ATM_ESTANDAR,-19.0471083333,-65.2458361111,Av. de las Américas N° 222 esq. Calle Ecuador.
5930,ATM: 717 Villa Fátima,Cajero Automático,Horario.SI,800103999,Tipo.ATM,SubTipo.ATM_ESPECIAL,-16.476234829347188,-68.11883512836032,"Av. de las Américas N°520, Zona Villa Fátima."
5620,ATM: 706 Alto Obrajes,Cajero Automático,Horario.SI,800103999,Tipo.ATM,SubTipo.ATM_ESTANDAR,-16.5233492038,-68.1064502,"Av. del Maestro N° 879, entre Calles Hugo Davila y R.P. José Zampa, Zona Alto Obrajes Sector B."
5182,KIOSCO SMART MADRE INDIA,KIOSCO,Horario.SI,800103999,Tipo.ATM,SubTipo.KIOSCO,-17.7978524734,-63.1746823962,"Av. el Trompillo, esquina Avenida Argentina, 2do. Anillo."
8676,ATM: 240 IC Norte Busch,Cajero Automático,Horario.SI,800103999,Tipo.ATM,SubTipo.ATM_ESTANDAR,-17.772968422937026,-63.203623430865235,"Av.Busch, entre 3er. Anillo Interno y Av. Marcelo Terceros Bánzer, Supermercado IC Norte"
160,ATM: 315 Melchor Perez de Olguin,Cajero Automático,Horario.SI,800-103999,Tipo.ATM,SubTipo.ATM_ESTANDAR,-17.371225,-66.1759138889,Av.Melchor Perez de Olguin No. 1322 casi Esquina Av. America.
28,ATM: 138 Agencia Roca y Coronado,Cajero Automático,Horario.SI,800-103999,Tipo.ATM,SubTipo.INFANTIL,-17.7846444444444,-63.1954222222222,"Avenida Roca y Coronado Nº 9, Zona Oeste, Uv 31, Mz 17A."
4361,Kiosco Smart Ag. Ambassador,Maquina dispensadora de Tarjeta de Débito,Horario.SI,800103999,Tipo.ATM,SubTipo.KIOSCO,-17.768330187895494,-63.193727421314975,"Barrio Equipetrol, sobre Av. San Martin."
7761,ATM: 500 Cambódromo 6to Anillo,Cajero Automático,Horario.SI,800103999,Tipo.ATM,SubTipo.ATM_ESPECIAL,-17.74347831954187,-63.14506579413546,"Barrio Melchor Pinto, Av. Prolongación Mutualista N°1820 casi 6to. Anillo, Zona Cambódromo."
8059,ATM: 238 Embol Tarija,Cajero Automático,Horario.SI,800103999,Tipo.ATM,SubTipo.ATM_ESTANDAR,-21.5495412,-64.6966676,"Barrio San Jorge I, Av. Panamericana N° 4030."
7711,ATM: 499 Mercado Primavera,Cajero Automático,Horario.SI,800103999,Tipo.ATM,SubTipo.ATM_ESPECIAL,-17.824121776910474,-63.16574084424481,Cajero Automático
5658,ATM: 709 Automovil Club Calacoto,Cajero Automático,Horario.SI,800109999,Tipo.ATM,SubTipo.ATM_ESTANDAR,-16.53974536982089,-68.08661618018935,"Calacoto, Automovil Club, sobre Av. Ballivian, entre calle 12 y 13."
5603,ATM: 328 Rotonda Perú,Cajero Automático,Horario.SI,800103999,Tipo.ATM,SubTipo.ATM_ESPECIAL,-17.387967181144234,-66.17072548909827,"Cale Perú, Esq. D'orbigni Edificio Mitri N° 869, Zona Hipódromo."
6191,ATM: 730 Calacoto Calle 15,Cajero Automático,Horario.SI,800103999,Tipo.ATM,SubTipo.ATM_ESTANDAR,-16.54064848463731,-68.08387305055663,"Calle 15 de Calacoto , entre Av. Sanchez Bustamante y Av. Julio Patiño"
5947,ATM: 714 Mallasa,Cajero Automático,Horario.SI,800103999,Tipo.ATM,SubTipo.ATM_ESPECIAL,-16.567546605911854,-68.08978870746988,"Calle 2 Mallasa, sobre la carretera a Río Abajo, Zona Mallasa."
114,ATM: 284 Calacoto,Cajero Automático,Horario.SI,800-103999,Tipo.ATM,SubTipo.ATM_ESTANDAR,-16.540075,-68.0777805556,"Calle 21 N° 8215, Zona de Calacoto"
5296,Kiosco Smart San Miguel,Kiosco dispensador de Tarjetas de Débito,Horario.SI,800103999,Tipo.ATM,SubTipo.KIOSCO,-16.543853823729624,-68.07717260726878,"Calle 21 N° 8398, esq., Ignacio Cordero, Zona San Miguel (Sala de Autoservicios)."
6125,ATM: 731 San Miguel II,Cajero Automático,Horario.SI,800103999,Tipo.ATM,SubTipo.INFANTIL,-16.543826232803273,-68.07714288709184,"Calle 21 N° 8398, esquina Calle Ignacio Cordero, Zona San Miguel."
8743,ATM: 421 Mall Norte Montero,Cajero Automático,Horario.SI,800103999,Tipo.ATM,SubTipo.ATM_ESTANDAR,-17.3453561,-63.25323729999999,"Calle 24 de Septiembre, Esq. Calle Mariscal Santa Cruz, Centro Comercial Mall Norte, Montero"
8941,ATM: 365 Embol Cochabamba,Cajero Automático,Horario.SI,800103999,Tipo.ATM,SubTipo.ATM_ESTANDAR,-17.3693249,-66.1445442,"Calle A. Quijarro N° 1982 esq. Av circunvalacion, Instalaciones de EMBOL Cochabamba"
5637,ATM: 705 Irpavi,Cajero Automático,Horario.SI,800103999,Tipo.ATM,SubTipo.ATM_ESTANDAR,-16.5243017452,-68.086959691,"Calle Altamirano N° 6593, esq., Calle 6, Zona Irpavi."
6384,ATM: 349 Recoleta,ATM,Horario.SI,800103999,Tipo.ATM,SubTipo.ATM_ESTANDAR,-17.378098296606368,-66.15257219629517,"Calle Beni, Esq. Calle Recoleta."
9610,Kiosko de Autoservicio Ag. Potosi,Kiosco de Autoservicio,Horario.NO,3 173000,Tipo.ATM,SubTipo.KIOSCO,-19.5875758780944,-65.7525612097997,Calle Bolívar N° 948 esq. calle Sucre
8361,ATM: 800 Agencia Potosí,Cajero Automático,Horario.SI,800103999,Tipo.ATM,SubTipo.ATM_ESPECIAL,-19.5875648,-65.7524388,"Calle Bolívar N° 948, esquina Calle Sucre, Sala de Autoservicios."
7947,OFICINA CENTRAL,Santa Cruz,,(591-3) 3173000,Tipo.AGENCIA,SubTipo.AGENCIA_NORMAL,-17.781973985695743,-63.18343992914241,Calle Bolívar N° 99
8335,AGENCIA POTOSI,AGECNIA FIJA,,(591 2) 317-4150,Tipo.AGENCIA,SubTipo.AGENCIA_NORMAL,-19.5875648,-65.7524388,"Calle Bolívar N°948, Esquina Calle Sucre, Zona Central de la ciudad de Potosi"
9081,ATM Of. Central SCZ II,Cajero Automático,Horario.NO,800103999,Tipo.ATM,SubTipo.ATM_ESPECIAL,-17.782501,-63.180791,Calle Bolívar N°99
9113,ATM Sala Of. Central SCZ III,Cajero Automático,Horario.SI,800103999,Tipo.ATM,SubTipo.ATM_ESPECIAL,-17.782467,-63.180793,Calle Bolívar N°99
9102,ATM Sala Of. Central SCZ II,Cajero Automático,Horario.SI,800103999,Tipo.ATM,SubTipo.ATM_ESPECIAL,-17.782467,-63.180793,Calle Bolívar N°99
9091,ATM Sala Of. Central SCZ I,Cajero Automático,Horario.SI,800103999,Tipo.ATM,SubTipo.ATM_ESTANDAR,-17.782467,-63.180793,Calle Bolívar N°99
9532,Kiosko de Autoservicio Oficina Central III,Kiosco de Autoservicio,Horario.NO,3 173000,Tipo.ATM,SubTipo.KIOSCO,-17.78256838008083,-63.180623617429276,Calle Bolívar N°99
9530,Kiosko de Autoservicio Oficina Central II,Kiosco de Autoservicio,Horario.SI,3 173000,Tipo.ATM,SubTipo.KIOSCO,-17.7825568633501,-63.180610290582,Calle Bolívar N°99
9546,Kiosko de Autoservicio Oficina Central,Kiosco de Autoservicio,Horario.NO,3 173000,Tipo.ATM,SubTipo.KIOSCO,-17.7825568633501,-63.180610290582,Calle Bolívar N°99
9071,ATM Of. Central SCZ I,Cajero Automático,Horario.NO,800103999,Tipo.ATM,SubTipo.ATM_ESPECIAL,-17.782501,-63.180791,Calle Bolívar N°99
9591,Kiosko de Autoservicio Ag. Oruro,Kiosko de Autoservicio,Horario.NO,3173000,Tipo.ATM,SubTipo.KIOSCO,-17.9704688409293,-67.1135306619487,Calle Bolívar esq. Calle Soria Galvarro
138,AGENCIA ORURO,Oruro,Horario.NO,(591-2) 525 9449,Tipo.AGENCIA,SubTipo.AGENCIA_NORMAL,-17.9705203834,-67.1134792037,Calle Bolívar esq. Calle Soria Galvarro.
9040,ATM San Miguel de Velasco,Cajero Automático,Horario.SI,800103999,Tipo.ATM,SubTipo.ATM_ESTANDAR,-16.69840531846353,-60.9674438472908,"Calle Bolívar, frente a la Plaza Principal 29 de Septiembre, San Miguel de Velasco"
6181,ATM: 728 Teleférico Estación Prado,Cajero Automático,Horario.NO,800103999,Tipo.ATM,SubTipo.ATM_ESPECIAL,-16.50070541516824,-68.13236537475727,"Calle Bueno, Estación Prado, Teleférico Celeste."
5934,ATM: 719 Cañada Strongest,Cajero Automático,Horario.SI,800103999,Tipo.ATM,SubTipo.ATM_ESPECIAL,-16.502362495745597,-68.13465676830282,"Calle Cañada Strongest y Calle Nicolas Acosta, Zona San Pedro."
58,ATM: 248 7 Calles,Cajero Automático,Horario.SI,800-103999,Tipo.ATM,SubTipo.ATM_ESTANDAR,-17.7862277777778,-63.1844861111111,"Calle Colon 204, casi esquina Suarez de Figueroa MZ 25, Zona del 7 Calles."
8121,ATM: 248 7 Calles,Cajero Automatico,Horario.SI,800103999,Tipo.ATM,SubTipo.ATM_ESTANDAR,-17.786121276253255,-63.184462678835565,"Calle Colón 204, casi esquina Suárez de Figueroa MZ 25, Zona del 7 Calles"
6376,ATM: 351 Colonial,Cajero Automático,Horario.SI,800103999,Tipo.ATM,SubTipo.ATM_ESTANDAR,-17.4038072,-66.1556428,"Calle Esteban Arce N° 1323, Centro Comercial Colonial."
8646,ATM: 744 Guachalla,Cajero Automático,Horario.SI,800103999,Tipo.ATM,SubTipo.ATM_ESTANDAR,-16.5088043,-68.1289388,"Calle Fernando Guachalla N° 453, entre C. Sanchez Lima y Av. 20 de Octubre, Sopocachi"
8056,ATM: 536 Central Florida III,Cajero Automático,Horario.SI,800103999,Tipo.ATM,SubTipo.ATM_ESTANDAR,-17.782004013763174,-63.18346284068471,Calle Florida N° 64.
8052,ATM: 534 Central Florida,Cajero Automático,Horario.SI,800103999,Tipo.ATM,SubTipo.ATM_ESPECIAL,-17.78197804211269,-63.183430267483295,Calle Florida N° 64.
8054,ATM: 535 Central Florida II,Cajero Automático,Horario.SI,800103999,Tipo.ATM,SubTipo.ATM_ESPECIAL,-17.782001971832514,-63.18345303819773,Calle Florida N° 64.
5961,ATM: 722 Haití,Cajero Automático,Horario.SI,800103999,Tipo.ATM,SubTipo.ATM_ESTANDAR,-16.490966311453345,-68.12283334586819,"Calle Haití entre Calles Guerrilleros Lanza y Trinidad y Tobago, Zona Miraflores"
8432,ATM: 359 Agencia La Cancha II,Cajero Automático,Horario.SI,800103999,Tipo.ATM,SubTipo.ATM_ESPECIAL,-17.4013621,-66.1528208,"Calle Honduras N° 0545, entre Calles San Martin y Lanza."
6397,ATM: 354 Agencia La Cancha,Cajero Automático,Horario.SI,800103999,Tipo.ATM,SubTipo.ATM_ESPECIAL,-17.401369394438007,-66.15283972253187,"Calle Honduras N° 0545, entre calle San Martin y Lanza, Zona del Mercado La Cancha."
9558,Kiosko de Autoservicio Ag. La Cancha II,Kiosko de Autoservicio,Horario.NO,3173000,Tipo.ATM,SubTipo.KIOSCO,-17.4013908990329,-66.1527616846114,"Calle Honduras N° 0545, entre calle San Martín y Lanza"
9554,Kiosko de Autoservicio Ag. La Cancha,Kiosko de Autoservicio,Horario.NO,3173000,Tipo.ATM,SubTipo.KIOSCO,-17.4013908990329,-66.1527616846114,"Calle Honduras N° 0545, entre calle San Martín yLanza"
148,AGENCIA LA CANCHA,Cochabamba,Horario.NO,(591-4) 417 3000,Tipo.AGENCIA,SubTipo.AGENCIA_NORMAL,-17.401373149834324,-66.15279202846021,"Calle Honduras N°0545, entre Calle San Martín y Lanza, Zona Mercado La Cancha."
6224,ATM: 512 Isabel La Católica,Cajero Automático,Horario.SI,800103999,Tipo.ATM,SubTipo.ATM_ESPECIAL,-17.792174577005934,-63.19031381254687,"Calle Isabel La Católica entre Calles Chiriguanos y Muchirí, Capilla Corazón de Jesús."
150,AGENCIA QUILLACOLLO,Cochabamba,Horario.NO,(591-4) 417 3000,Tipo.AGENCIA,SubTipo.AGENCIA_NORMAL,-17.39513116372177,-66.28044484199896,"Calle Jose Ballivián esq. General Pando, Quillacollo."
6963,ATM: 356 Ag. Quillacollo Sala I,Cajero Automático,Horario.SI,800103999,Tipo.ATM,SubTipo.ATM_ESPECIAL,-17.3951605,-66.2804495,"Calle Jose Ballivián, Esquina General Pando, Quillacollo."
6968,ATM: 357 Ag. Quillacollo Sala II,Cajero Automático,Horario.SI,800103999,Tipo.ATM,SubTipo.ATM_ESTANDAR,-17.3951605,-66.2804495,"Calle Jose Ballivián, Esquina General Pando, Quillacollo."
9587,Kiosko de Autoservicio Of. Quillacollo,Kiosco de Autoservicio,Horario.NO,3173000,Tipo.ATM,SubTipo.KIOSCO,-17.3950798156549,-66.2806656622399,"Calle José Ballivián esq. General Pando, Quillacollo"
9589,Kiosko de Autoservicio Ag. Quillacollo II,Kiosko de Autoservicio Ag. Quillacollo,Horario.NO,3173000,Tipo.ATM,SubTipo.KIOSCO,-17.3950798156549,-66.2806656622399,"Calle José Ballivián esq. General Pando, Quillacollo"
4922,Oficina Externa Gutierrez,Localidad de Gutiérrez.,,(591-3) 317-3000,Tipo.AGENCIA,SubTipo.AGENCIA_NORMAL,-19.4227538563,-63.5300765801,"Calle José Santisteban S/N, Frente a la plaza principal de la Localidad de Gutiérrez."
5598,ATM: 326 El Avión,Cajero Automático,Horario.SI,800103999,Tipo.ATM,SubTipo.ATM_ESPECIAL,-17.41110725783525,-66.16508584353842,"Calle Killman, entre Av. Fuerza Aérea y Av. Aroma N° 8004, Zona Jayhuayco"
5926,ATM: 715 Eloy Salmon,ATM,Horario.SI,800103999,Tipo.ATM,SubTipo.ATM_ESPECIAL,-16.498353783102466,-68.1435227178815,"Calle La Gasca, entre Calles Eloy Salmon y Vicente Ochoa"
9632,Kiosko de Autoservicio Ag. San Ignacio de Velasco,Kiosco de Autoservicio,Horario.NO,3 173000,Tipo.ATM,SubTipo.KIOSCO,-16.37471721129216,-60.95963391989156,"Calle Libertad casi esq. Calle La Paz, Plaza 31 de Julio"
8150,Agencia San Ignacio de Velasco,Agencia,,800103999,Tipo.AGENCIA,SubTipo.AGENCIA_NORMAL,-16.374814,-60.95953069999999,"Calle Libertad, casi Esq. Calle La Paz, Plaza 31 de Julio de San Ignacio, Barrio Casco Viejo, Provincia Velasco"
8162,ATM: 541 San Ignacio de Velasco,Cajero Automático,Horario.SI,800103999,Tipo.ATM,SubTipo.ATM_ESPECIAL,-16.374814,-60.95953069999999,"Calle Libertad, casi Esq. Calle La Paz, Plaza 31 de Julio de San Ignacio, Barrio Casco Viejo, Provincia Velasco"
9570,Kiosko de Autoservicio Ag. Riberalta,Kiosko de Autoservicio,Horario.NO,3173000,Tipo.ATM,SubTipo.KIOSCO,-10.9981472578981,-66.0744341294507,Calle Nicolás Suárez N° 483 esq. Acera Sur de la Plaza 3 de Febrero
125,AGENCIA RIBERALTA,Beni,Horario.NO,(591-3) 852-4411,Tipo.AGENCIA,SubTipo.AGENCIA_NORMAL,-10.9982833333,-66.074425,Calle Nicolás Suárez N°483 esq. acera sur Plaza 3 de Febrero.
6026,ATM: 907 Ag. Riberalta II,Cajero Automático,Horario.SI,800103999,Tipo.ATM,SubTipo.ATM_ESPECIAL,-10.9982027777778,-66.0744833333333,"Calle Nicolás Súarez Nº 483, Esq. Plaza 3 de Febrero"
6024,ATM: 902 Ag. Riberalta I,Cajero Automático,Horario.SI,800103999,Tipo.ATM,SubTipo.ATM_ESPECIAL,-10.9982861111111,-66.0744222222222,"Calle Nicolás Súarez Nº 483, Esq. Plaza 3 de Febrero"
5908,ATM: 334 Pasteur,Cajero Automático,Horario.SI,800103999,Tipo.ATM,SubTipo.ATM_ESTANDAR,-17.391667735648163,-66.14880895304196,Calle Pasteur N° 991 casi esquina Bolivar.
6173,ATM: 733 Sagarnaga,Cajero Automático,Horario.SI,800103999,Tipo.ATM,SubTipo.ATM_ESPECIAL,-16.497887634700813,-68.13901764992383,Calle Sagarnaga entre Calles Linares y Av. Illampu.
5938,ATM: 721 Socabaya,Cajero Automático,Horario.SI,800103999,Tipo.ATM,SubTipo.ATM_ESPECIAL,-16.496749816220138,-68.13469765453208,Calle Socabaya entre calles Mercado y Potosí.
139,ATM: 210 Agencia Oruro,Cajero Automático,Horario.SI,800-103999,Tipo.ATM,SubTipo.ATM_ESPECIAL,-17.970678333669266,-67.11357452445013,"Calle Soria Galvarro, entre Calles Bolívar y Sucre."
8648,ATM: 745 Calle Sucre,Cajero Automático,Horario.SI,800103999,Tipo.ATM,SubTipo.ATM_ESTANDAR,-16.494168,-68.1319232,Calle Sucre esq. Calle Bolivar N° 194
8658,ATM: 574 Samaipata II,Cajero Automático,Horario.SI,800103999,Tipo.ATM,SubTipo.ATM_ESTANDAR,-18.1802023,-63.8758512,"Calle Sucre, Frente a la Plaza Principal de Samaipata, Almacén Alba"
8770,ATM: 573 Samaipata I,Cajero Automático,Horario.SI,800103999,Tipo.ATM,SubTipo.ATM_ESTANDAR,-18.1802023,-63.8758512,"Calle Sucre, Frente a la Plaza Principal de Samaipata, Almacén Alba"
6577,ATM: 214 COTEOR,Cajero Automático,Horario.SI,800103999,Tipo.ATM,SubTipo.ATM_ESTANDAR,-17.967956764858847,-67.10418142939567,Calle Tejerina entre calles Caro y Montecinos (Edificio COTEOR Redes)
5700,ATM: 712 Plaza España,Cajero Automatico,Horario.SI,800103999,Tipo.ATM,SubTipo.ATM_ESTANDAR,-16.514029829243484,-68.12905014092848,"Calle Victor Sanjinez N° 2654, entre Calle Barrios y Gregorio Reynolds"
9518,Kiosko de Autoservicio Ag. Virgen de Cotoca,Kiosco de Autoservicio,Horario.NO,3 173000,Tipo.ATM,SubTipo.KIOSCO,-17.770494988930462,-63.12236218082548,"Carretera Av. Virgen de Cotoca, 6to. Anillo esq. Vía Férrea N° 10"
8939,ATM: 802 Embol Potosí,Cajero Automático,Horario.SI,800103999,Tipo.ATM,SubTipo.ATM_ESTANDAR,-19.557653,-65.73648299999999,"Carretera a Karachipampa S/N, Villa Imperial Porosi, Instalaciones de EMBOL Karachipampa"
6372,ATM: 353 Vinto,Cajero Automático,Horario.SI,800103999,Tipo.ATM,SubTipo.ATM_ESTANDAR,-17.3962496,-66.3150175,"Carretera a Oruro Km. 16, Municipio de Vinto, Provincia Quillacollo,"
8650,ATM: 746 Terminal El Alto,Cajero Automático,Horario.SI,800103999,Tipo.ATM,SubTipo.ATM_ESPECIAL,-16.5192836,-68.1762452,"Carretera a Viacha, Av. Ladislao Cabrera, entre Av. Panamericana y C. 17 de Febrero, El Alto"
59,ATM: 249 Comercial Cañoto,Cajero Automático,Horario.SI,800-103999,Tipo.ATM,SubTipo.ATM_ESTANDAR,-17.7809388888889,-63.1891222222222,"Centro Comercial Cañoto, sobre la circunvalación Cañoto, entrada del parqueo, 1er anillo, Uv. 12 Mz. 21."
110,ATM: 179 Megacenter,Cajero Automático,Horario.NO,800-103999,Tipo.ATM,SubTipo.ATM_ESTANDAR,-16.5321055556,-68.0870777778,Centro Recreacional Megacenter - Av. Rafael Pabon
5574,ATM: 470 Clínica San Prudencio,Cajero Automático,Horario.SI,800103999,Tipo.ATM,SubTipo.ATM_ESPECIAL,-17.8278504205775,-63.22598216397188,"Clínica San Prudencio, Doble Vía la Guardia km 6."
56,ATM: 244 Agencia Okinawa,Cajero Automático,Horario.SI,800-103999,Tipo.ATM,SubTipo.ATM_ESTANDAR,-17.22161552700483,-62.90271809610091,"Colonia Okinawa N 1, Calle Riukiu s/n Carretera Principal, Planta Industrial CAICO LTDA. UV1, Mz24"
16,AGENCIA OKINAWA,Santa Cruz,Horario.NO,(591-3) 317-3000,Tipo.AGENCIA,SubTipo.AGENCIA_NORMAL,-17.22163321632982,-62.90269017591465,"Colonia Okinawa N°1, Calle Riukiu S/N Carretera Principal, Planta Industrial CAICO LTDA."
8540,ATM: 549 Biopetrol Berea,Cajero Automático,Horario.SI,800103999,Tipo.ATM,SubTipo.ATM_ESTANDAR,-17.8379689,-63.2381912,"Doble Vía La Guardia, Esq. 8vo. Anillo, Surtidor Biopetrol"
9608,Kiosko de Autoservicio Multicine El Alto,Kiosco de Autoservicio,Horario.NO,3 173000,Tipo.ATM,SubTipo.KIOSCO,-16.491408944082927,-68.20366555443661,"Edificio Multicine El Alto, Av. Juan Pablo II"
9606,Kiosko de Autoservicio Multicine La Paz,Kiosco de Autoservicio,Horario.NO,3 173000,Tipo.ATM,SubTipo.KIOSCO,-16.5106875617567,-68.1221948090621,Edificio Multicine La Paz Av. Arce N° 2631
5622,ATM: 708 Calle 3 Obrajes,Cajero Automático,Horario.SI,800103999,Tipo.ATM,SubTipo.ATM_ESTANDAR,-16.524192596879036,-68.11167627089101,"Edificio Titanium de la Av. Hernando Siles, entre las Calles 3 y 4, Zona Obrajes."
112,ATM: 282 Plaza Abaroa,Cajero Automático,Horario.SI,800-103999,Tipo.ATM,SubTipo.ATM_ESTANDAR,-16.5103,-68.1261638889,"Edificio Topater N° 2473 Av. 20 de Octubre entre Belisario Salinas y Pedro Salazar, Zona de la Plaza Abaroa."
103,ATM: 177 Aeropuerto El Alto,Cajero Automático,Horario.SI,800-103999,Tipo.ATM,SubTipo.ATM_ESTANDAR,-16.5091861111,-68.1768805556,En Instalacioens del Aeropuerto El Alto
70,ATM: 267 Fidalga Cotoca,Santa Cruz,Horario.SI,800-103999,Tipo.ATM,SubTipo.ATM_ESTANDAR,-17.7656138889,-63.1045027778,"En el Interior del Supermercado Fidalga, ubicado en el Km 5 de la Carretera a Cotoca, Esquina Urbanizacion Espiritu Santo"
72,ATM: 269 Comercial URUBO,Cajero Automático,Horario.SI,800-103999,Tipo.ATM,SubTipo.ATM_ESTANDAR,-17.7490666666667,-63.2153138888889,"Espacio N° 7, Local Comercial N° 7 de Instalaciones de Plaza Comercial Urubó de la Colina del Urubó. Localidad Porongo."
132,ATM: 196 Av. 6 de Agosto BE,Cajero Automático,Horario.SI,800-103999,Tipo.ATM,SubTipo.ATM_ESTANDAR,-14.8351,-64.9096916667,"Esquina de la Av. 6 de Agosto y Calle Tarija, Zona San Vicente de la ciudad de Trinidad."
7767,ATM: 482 Santos Dumont 6to Anillo,Cajero Automático,Horario.SI,800103999,Tipo.ATM,SubTipo.ATM_ESTANDAR,-17.844910961234447,-63.18154308284222,"Farmacias Hipermaxi, Av. Santos Dumont, 6to. Anillo"
7770,ATM: 483 Urb. España,Cajero Automático,Horario.SI,800103999,Tipo.ATM,SubTipo.ATM_ESTANDAR,-17.84135023875305,-63.1956143190574,"Farmacias Hipermaxi, Av. Urbanización España, 6to. Anillo"
5928,ATM: 716 La Florida,Cajero Automático,Horario.SI,800103999,Tipo.ATM,SubTipo.ATM_ESPECIAL,-16.545073458335636,-68.09134024325209,"Hotel Los Sauces de la Av. Arequipa, Zona La Florida."
4232,ATM: 438 Auto Ag. El Cristo,Cajero Automático,Horario.SI,800103999,Tipo.ATM,SubTipo.ATM_L,-17.771594991538628,-63.18291458012743,IIinstalaciones de la Agencia El Cristo de la Av. Monseñor Rivero Esquina Fortín Arce.
51,ATM: 134 EUROENVIOS,Cajero Automático,Horario.SI,800-103999,Tipo.ATM,SubTipo.ATM_ESTANDAR,-17.7786277777778,-63.1886833333333,"Inst. Euroenvios, Av. Cañoto Nº 476, 1er Anillo, Frente a la Clínica Niño Jesús, lado Farmacia Santa María."
18,AGENCIA PAILÓN,Santa Cruz,Horario.NO,(591-3) 317-3000,Tipo.AGENCIA,SubTipo.AGENCIA_NORMAL,-17.65927558444497,-62.72021810333989,"Instalaciones Asociación de Ganaderos de Pailón, Plaza 13 de Mayo acera oeste, frente a la Plaza Principal de Pailón."
3889,ATM: 431 Agencia Norte I,Cajero Automático,Horario.SI,800103999,Tipo.ATM,SubTipo.INFANTIL,-17.755752942058848,-63.17769342303535,"Instalaciones de Agencia Av. Cristo Redentor esq. Calle Monteniche, Uv-62, Mz-11, entre 3er y 4to. Anillo."
146,ATM: 233 FARMACORP Tarija,Cajero AutomáticoTarija,Horario.SI,800-103999,Tipo.ATM,SubTipo.ATM_ESTANDAR,-21.541,-64.7243666666667,"Instalaciones de Farmacorp, Av. Jaime Paz Zamora Esq. Eulogio Ruiz, Zona Villa Fátima frente a la terminal de buses."
619,ATM: 408 Depositario Agencia Blacutt,Cajero Automático,Horario.SI,800-103999.,Tipo.ATM,SubTipo.ATM_ESPECIAL,-17.79500038956295,-63.18077295622082,Instalaciones de la Agencia Blacutt ubicada en Av. Velarde Esq. Andrés Manso Nº 200.
3217,ATM: 429 Agencia Villa 1ro de Mayo II,Cajero Automático,Horario.SI,800103999,Tipo.ATM,SubTipo.ATM_ESTANDAR,-17.794990233455522,-63.13528275743272,"Instalaciones de la Agencia Villa 1ro de Mayo, ubicada en Plaza Villa 1ro de Mayo, Calle 5 Oeste s/n,"
3221,ATM: 428 Agencia Villa 1ro de Mayo I,Cajero Automático,Horario.SI,800103999,Tipo.ATM,SubTipo.ATM_ESPECIAL,-17.794909147692387,-63.13528434999432,"Instalaciones de la Agencia Villa 1ro de Mayo, ubicada en Plaza Villa 1ro de Mayo, Calle 5 Oeste s/n,"
77,ATM: 273 Agencia PAILON,Cajero Automático,Horario.SI,800-103999,Tipo.ATM,SubTipo.ATM_ESPECIAL,-17.6592954189373,63.720188754214156,"Instalaciones de la Asociacion de Ganaderos de Pailon, Plaza 13 de Mayo, Acera Oeste, Frente a la plaza principal de Pailon."
8091,ATM: 539 Agencia Pailon II,Cajero Automático,Horario.SI,800-103999,Tipo.ATM,SubTipo.ATM_ESPECIAL,-17.6593142,-62.720267,"Instalaciones de la Asociación de Ganaderos de Pailón, Plaza 13 de Mayo, Acera Oeste, Frente a la plaza principal de Pailón."
7173,ATM: 478 EMBOL,Cajero Automático,Horario.SI,800103999,Tipo.ATM,SubTipo.ATM_ESTANDAR,-17.76795971097296,-63.147318187210196,"Instalaciones de la Empresa Embol S.A., Parque Industrial PI, Jaime Mendoza 27, Cuarto Anillo Entre Av. Paragua y Canal Cotoca"
68,ATM: 265 Terminal SCZ,Cajero Automático,Horario.SI,800-103999,Tipo.ATM,SubTipo.ATM_ESTANDAR,-17.789510273608677,-63.16211620024554,"Instalaciones de la Terminal Bimodal de SCZ, sobre el enmallado de la Av. Intermodal."
7801,ATM: 462 Universidad NUR,Cajero Automático,Horario.SI,800103999,Tipo.ATM,SubTipo.ATM_ESPECIAL,-17.769041502075403,-63.182809054596326,"Instalaciones de la Universidad NUR, de la Avenida Cristo Redentor, N°100."
4592,ATM: 442 Depositario UPDS,Cajero Automático,Horario.SI,800103999,Tipo.ATM,SubTipo.ATM_ESPECIAL,-17.758179259177385,-63.174233126194736,"Instalaciones de la Universidad Privada Domingo Savio (UPDS) de la Av. Beni, esquina 3er anillo externo."
5030,ATM: 457 Depositario UDABOL,Cajero Automático,Horario.SI,800103999,Tipo.ATM,SubTipo.ATM_ESPECIAL,-17.768764412055322,-63.20134221270828,"Instalaciones de la Universidad UDABOL, 3er Anillo Interno, Esq. Radial 23"
161,ATM: 316 Aeropuerto Cbba.,Cajero Automático,Horario.SI,800-103999,Tipo.ATM,SubTipo.ATM_ESTANDAR,-17.4141972222,-66.1786944444,"Instalaciones del Aeropuerto Jorge Wilstermann, Av. Killman s/n."
2456,ATM: 405 Depositario Las Brisas,Cajero Automático,Horario.SI,800-103999.,Tipo.ATM,SubTipo.ATM_ESPECIAL,-17.749524716117257,-63.17644058421399,"Instalaciones del Centro Comercial Las Brisas, con acceso por el ingreso principal del 4to. Anillo, Sector N° 2. Av. Cristo Redentor."
2452,ATM: 421 Mall Montero,Cajero Automático,Horario.SI,800-103999,Tipo.ATM,SubTipo.ATM_ESTANDAR,-17.345361982624446,-63.2532563681915,"Instalaciones del Centro Comercial Mall Norte, Calle 24 de Septiembre, esq. Mariscal Santa Cruz, Montero."
9612,Kiosko de Autoservicio Ag. Ventura Mall,Kiosco de Autoservicio,Horario.NO,3 173000,Tipo.ATM,SubTipo.KIOSCO,-17.75420817448223,-63.19986196184444,"Instalaciones del Centro Comercial Ventura Mall, 4to Anillo casi esq. Av. Equipetrol, Nivel 2, Locales 2-4,5 y 6"
8908,ATM: 577 Agencia Ventura Mall II,Cajero Automático,Horario.NO,800103999,Tipo.ATM,SubTipo.ATM_ESTANDAR,-17.7543142,-63.1991291,"Instalaciones del Centro Comercial Ventura Mall, 4to Anillo, casi esq. Av. Equipetrol, Nivel 2, Local N° 6"
8906,ATM: 576 Agencia Ventura Mall I,Cajero Automático,Horario.NO,800103999,Tipo.ATM,SubTipo.ATM_ESPECIAL,-17.754275883050585,-63.19911837116395,"Instalaciones del Centro Comercial Ventura Mall, 4to Anillo, casi esq. Av. Equipetrol, Nivel 2, Local N° 6"
8899,Agencia Ventura Mall,Agencia Fija},,800103999,Tipo.AGENCIA,SubTipo.AGENCIA_NORMAL,-17.754292487063008,-63.19913178220902,"Instalaciones del Centro Comercial Ventura Mall, 4to Anillo, casi esq. Av. Equipetrol, Nivel 2, Locales N° N2-4,5 y 6"
9614,Kiosko de Autoservicio Ag. Ventura Mall II,Kiosco de Autoservicio,Horario.NO,3 173000,Tipo.ATM,SubTipo.KIOSCO,-17.753621466944033,-63.19916041553713,"Instalaciones del Centro Comercial Ventura Mall, planta baja"
8147,ATM: 164 Club deTenis SCZ,Cajero Autómatico,Horario.SI,800103999,Tipo.ATM,SubTipo.ATM_ESTANDAR,-17.7820819,-63.19821949999999,"Instalaciones del Club de Tenis Santa Cruz, Calle Bibosi N° 2120."
5144,ATM: 458 San Rafael de Velasco,Cajero Automático,Horario.SI,800103999,Tipo.ATM,SubTipo.ATM_ESTANDAR,-16.787254914909628,-60.67501782134323,"Instalaciones del Gobierno Municipal de San Rafael de Velasco, sobre la plaza principal 24 de Octubre, s/n."
4912,Oficina Externa San Rafael,"San Rafael de Velasco, Santa Cruz",,(591-3) 317-3000,Tipo.AGENCIA,SubTipo.AGENCIA_NORMAL,-16.78736533472249,-60.675068783314494,"Instalaciones del Gobierno Municipal de San Rafael de Velasco, sobre la plaza principal 24 de Octubre, s/n."
6278,ATM: 514 Ingenio Guabirá,Cajero Automático,Horario.SI,800103999,Tipo.ATM,SubTipo.ATM_ESTANDAR,-17.315701383571934,-63.26290344424972,"Instalaciones del Ingenio Azucarero Guabirá, Carretera a Saavedra, Municipio de Montero."
71,ATM: 268 HOT BURGER,Cajero Automático,Horario.SI,800-103999,Tipo.ATM,SubTipo.ATM_ESTANDAR,-17.7575944444444,-63.1660305555556,"Instalaciones del Parqueo de la Hot Burger, Av. Alemana N?3120, Casi Esquina Calle Salvatierra, entre 3er y 4to anillo."
157,ATM: 312 Shopping Sofer,Cajero Automático,Horario.SI,800-103999,Tipo.ATM,SubTipo.ATM_ESTANDAR,-17.3846555555556,-66.1511416666667,"Instalaciones del Shopping Sofer, Av. Oquendo Nro. 654."
5241,ATM: 446 Fidalga Norte,Cajero Automático,Horario.SI,800103999,Tipo.ATM,SubTipo.ATM_ESTANDAR,-17.758614785184214,-63.17813708141591,"Instalaciones del Supermercado Fidalga de la Av. Cristo Redentor entre 3er anillo interno y 3er anillo externo,"
122,ATM: 293 Hipermaxi Obrajes,Cajero Automático,Horario.SI,800-103999,Tipo.ATM,SubTipo.ATM_ESTANDAR,-16.5282888889,-68.1032611111,"Instalaciones del Supermercado Hipermaxi de la Av. 14 de Septiembre N° 6020, entre calles 14 y 15, Zona Obrajes."
64,ATM: 257 Hipermaxi Pirai,Cajero Automático,Horario.SI,800-103999,Tipo.ATM,SubTipo.ATM_ESTANDAR,-17.789860922137297,-63.19490458631158,"Instalaciones del Supermercado Hipermaxi, 2do anillo y Av. Pirai."
115,ATM: 285 Hipermaxi El Alto,Cajero Automático,Horario.NO,800-103999,Tipo.ATM,SubTipo.ATM_ESTANDAR,-16.5273055556,-68.1485055556,"Instalaciones del Supermercado Hipermaxi, Av. Alfredo Sanjines N? 500, entre la Av. del Policia y Calle B Ciudad Satelite, de la Ciudad de El Alto."
158,ATM: 313 Hipermaxi Juan de la Rosa Cbba.,Cajero Automático,Horario.SI,800-103999,Tipo.ATM,SubTipo.ATM_ESTANDAR,-17.3764361111,-66.1728027778,"Instalaciones del Supermercado Hipermaxi, Av. Juan de la Rosa Esq. Gabriel Rene Moreno."
121,ATM: 292 Hipermaxi Achumani,Cajero Automático,Horario.SI,800-103999,Tipo.ATM,SubTipo.ATM_ESTANDAR,-16.51875405765389,-68.06226368528847,"Instalaciones del Supermercado Hipermaxi, Av. The Strongest N°100, Av. A Calle B ( Amapolas) Zona Achumani."
5647,ATM: 324 Monseñor R. Nicoli,Cajero Automático,Horario.SI,800103999,Tipo.ATM,SubTipo.ATM_ESPECIAL,-17.4003756156,-66.0490416239,"Instalaciones del Supermercado PRIX, Av. Monseñor Roberto Nicoli, ingreso al Municipio de Sacaba."
131,ATM: 195 Supermercado Trinidad,Cajero Automático,Horario.SI,800-103999,Tipo.ATM,SubTipo.ATM_ESTANDAR,-14.8244916667,-64.9006444444,"Instalaciones del Supermercado Trinidad, Av. Comunidad Economica Europea"
15,AGENCIA MINERO,Santa Cruz,Horario.NO,(591-3) 317-3000,Tipo.AGENCIA,SubTipo.AGENCIA_NORMAL,-17.123948902498018,-63.2310471021612,"Instalaciones del Supermercado Unión Norte, Av. Santa Cruz entre Calle Avaroa y Calle Murillo."
4230,ATM: 439 Ag. Roca y Coronado,Cajero Automático,Horario.SI,800103999,Tipo.ATM,SubTipo.ATM_L,-17.784669063901813,-63.19563313065635,Instalaciones del auto atm de la Agencia Roca y Coronado de la Av. Roca y Coronado Nº 9.
73,ATM: 271 Ventura Mall I Depositario,Cajero Automático,Horario.NO,800-103999.,Tipo.ATM,SubTipo.ATM_ESPECIAL,-17.75483844224445,-63.199602774635984,"Intalaciones del Centro Comercial Ventura Mall, 4to Anillo, casi esq. Av. Equipetrol, Espacio N? 6, Local PB-39 de la planta baja."
3244,ATM: 426 Ag. Santos Dumont II - Looby - Depositario,Cajero Automático,Horario.SI,800103999,Tipo.ATM,SubTipo.ATM_ESPECIAL,-17.816006803821363,-63.18308978036191,"Interior de Agencia Santos Dumont, Av. Santos Dumont N° 1200 Esq. Calle Augusto Zambrano Zona Sud, entre 3er y 4to Anillo."
4605,Kiosco Smart Suc. La Paz,La Paz,Horario.SI,800103999,Tipo.ATM,SubTipo.KIOSCO,-16.49919962285738,-68.13380703297958,"Interior de Sucursal La Paz (Sala de Autoservicios) de la Av. Camacho N° 1372, Zona Central."
4374,Kiosco Smart Ag. Roca y Coronado,Maquina dispensadora de Tarjeta de Débito,Horario.NO,800103999,Tipo.ATM,SubTipo.KIOSCO,-17.7845439131,-63.1954386707,"Interior de la Agencia Roca y Coronado ubicada en Av. Roca y Coronado Nº 9, 2do Anillo."
3172,ATM: 427 Ag. Santos Dumont III - Depositario,Cajero Automático,Horario.SI,800-103999,Tipo.ATM,SubTipo.ATM_ESPECIAL,-17.816015102959014,-63.183085086496135,"Interior de la Agencia Santos Dumont, Av. Santos Dumont N° 1200 Esq. Calle Augusto Zambrano Zona Sud, entre 3er y 4to Anillo (Sala de Autoservicios)."
4389,Kiosco Smart Ag. Viedma,Maquina dispensadora de Tarjeta de Débito,Horario.NO,800103999,Tipo.ATM,SubTipo.KIOSCO,-17.788958501403393,-63.17156835153844,"Interior de la AgenciaViedma ubicada en Av. Viedma, Esquina Calle Saavedra Nº 780."
4703,ATM: 296 Miraflores,Cajero Automático,Horario.SI,800103999,Tipo.ATM,SubTipo.ATM_ESTANDAR,-16.502599161130462,-68.12070936556191,"Interior de nuestra Sala de Autoservicios ubicada en Av. Busch esq., Calle Villa Lobos, Zona Miraflores."
4701,ATM: 295 Depositario Miraflores,Cajero Automático,Horario.SI,800103999,Tipo.ATM,SubTipo.ATM_ESPECIAL,-16.502587306370497,-68.12075776619315,"Interior de nuestra Sala de Autoservicios ubicada en Av. Busch esq., Calle Villa Lobos, Zona Miraflores."
6937,ATM: 297 San Miguel,Cajero Automático,Horario.SI,800103999,Tipo.ATM,SubTipo.ATM_ESTANDAR,-16.543826500833678,-68.0771149410021,"Interior de nuestra Sala de Autoservicios ubicada en la Calle 21, esq., Ignacio Cordero, Zona San Miguel."
5218,ATM: 213 Depositario Ag. Oruro,Cajero Automático,Horario.SI,800103999,Tipo.ATM,SubTipo.ATM_ESPECIAL,-17.9704893174,-67.1135009494,Interior de nuestra Sala de Autoservicios ubicada en la Calle Bolívar esquina Calle Soria Galvarro.
5303,Kiosco Smart Agencia Oruro,Kiosco Smart,Horario.NO,800103999,Tipo.ATM,SubTipo.KIOSCO,-17.9704877228,-67.1135036316,Interior de nuestra Sala de Autoservicios ubicada en la Calle Bolívar esquina Calle Soria Galvarro.
649,ATM: 415 Agencia El Cristo III - Depositario,Cajero Automático,Horario.NO,800-103999.,Tipo.ATM,SubTipo.ATM_ESPECIAL,-17.7716333333,-63.1826722222222,Interior del ingreso principal de Agencia El Cristo ubicada en Av. Monseñor Rivero Esquina Fortín Arce.
120,ATM: 291 Los Yungas,Cajero Automático,Horario.SI,800-103999,Tipo.ATM,SubTipo.ATM_ESTANDAR,-16.4974361111,-68.128725,"Local Comercial N° 1 situado en la Planta Baja del Edificio ¿Rojas Gutierrez¿, Calle Yungas No. 876, de la Zona Santa Bárbara"
7702,ATM: 497 Nueva Ramada,Cajero Automático,Horario.SI,800103999,Tipo.ATM,SubTipo.ATM_ESPECIAL,-17.836942276887786,-63.2137960053837,"Mercado Nueva Ramada, entre 6to. y 7mo. Anillo, entre Doble Vía la Guardia y Av. Moscú."
7789,ATM: 495 Micro Mercado La Guardia,Cajero Automático,Horario.SI,800103999,Tipo.ATM,SubTipo.ATM_ESTANDAR,-17.89146785261939,-63.3213808346977,"Micromercado La Guardia, Municipio La Guardia, Carretera Principal km.20"
2445,ATM: 418 Macarena,Cajero Automático,Horario.SI,800-103999,Tipo.ATM,SubTipo.ATM_ESTANDAR,-17.806537874540577,-63.206966805012485,"Micromercado Macarena, Barrio Las Palmas, Avenida Ibérica, esquina Calle Ipiás, UV-0052, Mz-0056"
5592,ATM: 325 Parque Industrial Santivañez,Cajero Automático,Horario.SI,800103999,Tipo.ATM,SubTipo.ATM_ESPECIAL,-17.5566915927,-66.250195472,"Parque Industrial Santivañez, Municipio de Santivañez."
9568,Kiosko de Autoservicio Ag.Parque Industrial,Kiosko de Autoservicio,Horario.NO,3173000,Tipo.ATM,SubTipo.KIOSCO,-17.764466354987217,-63.14603433197932,"Parque Industrial, Manzana PI-27, Unidad Vecinal PI, Lote 12, Av. Transversal 1"
8654,AGENCIA PARQUE INDUSTRIAL,AGENCIA,,800103999,Tipo.AGENCIA,SubTipo.AGENCIA_NORMAL,-17.7643889,-63.14594959999999,"Parque Industrial, Manzana PI-27, Unidad Vecinal PI, Lote 12, Av. Transversal 1."
9381,Kiosco de Autoservicio AG. Parque Industrial,Apertura de primera y segunda cuenta,Horario.NO,800103999,Tipo.ATM,SubTipo.KIOSCO,-17.764466354987217,63.14603433197932,"Parque Industrial, Manzana PI27, Unidad Vecinal PI, Lote 12, Av. Transversal 1"
8607,ATM: 563 Parque Industrial I,Cajero Automático,Horario.SI,800103999,Tipo.ATM,SubTipo.ATM_ESPECIAL,-17.7643889,-63.14594959999999,"Parque Industrial, Mz. PI-27, Av. Transversal 1, Agencia Parque Industrial"
8603,ATM: 564 II Parque Industrial,Cajero Automático,Horario.SI,800103999,Tipo.ATM,SubTipo.ATM_ESTANDAR,-17.764387516594148,-63.14594959999999,"Parque Industrial, Mz. PI-27, Av. Transversal 1, Agencia Parque Industrial"
48,ATM: 160 Aeropuerto Viru Viru,Cajero Automático,Horario.SI,800-103999,Tipo.ATM,SubTipo.ATM_ESPECIAL,-17.64663177230806,-63.140971076721165,Planta Baja del Hall Principal vdel Aeropuerto Viru Viru.
5782,ATM: 472 Las Lomas,Cajero Automático,Horario.SI,800103999,Tipo.ATM,SubTipo.ATM_ESPECIAL,-17.388648733809266,-63.54073745322264,"Planta Siderúrgica Las Lomas, Carretera al Norte (Ruta Nacional 4), Buena Vista,"
9522,Kiosko de Autoservicio Ag. Montero,Kiosco de Autoservicio,Horario.NO,3 173000,Tipo.ATM,SubTipo.KIOSCO,-17.342096763307545,-63.2563870572812,Plaza 2 de Diciembre en la esquina formada por las Calles Bolívar y Warnes
14,AGENCIA MONTERO,Santa Cruz,Horario.NO,(591-3) 922-6498,Tipo.AGENCIA,SubTipo.AGENCIA_NORMAL,-17.3421305555556,-63.25643333333329,Plaza 2 de Diciembre esquina Calles Bolívar y Warnes S/N.
6584,ATM: 220 Agencia Sucre,Cajero Automático,Horario.SI,800103999,Tipo.ATM,SubTipo.ATM_ESPECIAL,-19.04723708079189,-65.25936637996034,Plaza 25 de Mayo No. 50
9580,Kiosko de Autoservicio Ag. Sucre,Kiosko de Autoservicio,Horario.NO,3173000,Tipo.ATM,SubTipo.KIOSCO,-19.04721690841562,-65.2583763072514,Plaza 25 de Mayo N° 50
135,AGENCIA SUCRE,Chuquisaca,Horario.NO,(591-4) 646 0169,Tipo.AGENCIA,SubTipo.AGENCIA_NORMAL,-19.0472999799,-65.2593515322,Plaza 25 de Mayo N°50.
5582,ATM: 476 La Esquina de Sevilla,Cajero Automático,Horario.SI,800103999,Tipo.ATM,SubTipo.ATM_ESTANDAR,-17.68261681307907,-63.15008236913987,"Plaza Comercial La Esquina de Sevilla, Av Internacional Km 10."
5920,ATM: 340 Constitución,Cajero Automático,Horario.SI,800103999,Tipo.ATM,SubTipo.ATM_ESTANDAR,-17.384526272721647,-66.15294939669138,Plaza Constitución N° 84.
8910,ATM: 230 Central Tarija,Cajero Automático,Horario.SI,800103999,Tipo.ATM,SubTipo.ATM_ESTANDAR,-21.5333509,-64.73445509999999,"Plaza Luis de Fuentes, Calle La Madrid N° 0394 Esq. General Trigo, Sala de Autoservicios"
9560,Kiosko de Autoservicio Ag. Tarija,Kiosko de Autoservicio,Horario.NO,3173000,Tipo.ATM,SubTipo.KIOSCO,-21.533300980192315,-64.7344765629119,"Plaza Luis de Fuentes, Calle La Madrid N° 0394, esq. General Trigo"
142,SUCURSAL TARIJA,Tarija,Horario.NO,(591-4) 665-4000,Tipo.AGENCIA,SubTipo.AGENCIA_NORMAL,-21.5333742153,-64.7344862272,"Plaza Luis de Fuentes, Calle La Madrid N°0394 esq. General Trigo."
144,ATM: 230 Depositario Suc. Tarija I,Cajero Automático,Horario.SI,800-103999,Tipo.ATM,SubTipo.ATM_ESPECIAL,-21.5333927214,-64.7344326172,"Plaza Luis de Fuentes,Calle La Madrid N°0394 Esq. GeneralTrigo."
127,ATM: 193 Sucursal Trinidad I,Cajero Automático,Horario.SI,800-103999,Tipo.ATM,SubTipo.ATM_ESTANDAR,-14.8350972222222,-64.9047472222222,Plaza Mcal. J. Ballivian Acera Oeste N° 28
9446,Kiosko de Autoservicio Sucursal Trinidad,Kiosko de Autoservicio,Horario.NO,3173000,Tipo.ATM,SubTipo.KIOSCO_S,-14.834827946188424,-64.90484640644087,Plaza Mcal. J. Ballivián Acera Oeste N° 28
123,SUCURSAL TRINIDAD,Beni,Horario.NO,(591-3) 46-23777,Tipo.AGENCIA,SubTipo.AGENCIA_NORMAL,-14.8351388889,-64.9047888889,Plaza Mcal. J. Ballivián acera Oeste N°28
8483,ATM: 903 Sucursal Trinidad,Cajero Automático,Horario.SI,800103999,Tipo.ATM,SubTipo.ATM_ESPECIAL,-14.834954297301243,-64.90496742458488,Plaza Mcal. José Ballivián Acera Oeste N° 28.
8827,ATM: 161 Agencia Montero II,Cajero Automático,Horario.SI,800103999,Tipo.ATM,SubTipo.ATM_ESTANDAR,-17.767182944900103,-63.15654605253942,"Plaza Principal de Montero 2 de Diciembre, Calle Independencia Esq. Calle Bolívar"
8809,ATM: 133 Agencia Montero I,Cajero Automático,Horario.SI,800103999,Tipo.ATM,SubTipo.ATM_ESTANDAR,-17.7671843,-63.15656749999999,"Plaza Principal de Montero 2 de Diciembre, Calle Independencia Esq. Calle Bolívar"
9539,Kiosko de Autoservicio Ag. Villa 1ero de Mayo,Kiosco de Autoservicio,Horario.NO,3 173000,Tipo.ATM,SubTipo.KIOSCO,-17.794954660556257,-63.135321722909104,"Plaza Villa 1ro de Mayo, Calle 5 Oeste"
9495,Kiosko de Autoservicio Ag. Villa 1ero de Mayo II,Kiosco de Autoservicio,Horario.NO,3 173000,Tipo.ATM,SubTipo.KIOSCO,-17.794954660556257,-63.135321722909104,"Plaza Villa 1ro de Mayo, Calle 5 Oeste S/N"
3210,AGENCIA VILLA 1RO DE MAYO,"Santa Cruz,",Horario.NO,(5913) 317-3000,Tipo.AGENCIA,SubTipo.AGENCIA_NORMAL,-17.79497819975222,-63.13530101589095,"Plaza Villa 1ro de Mayo, Calle 5 Oeste s/n."
7785,ATM: 494 Doble Vía Km. 8,Cajero Automático,Horario.SI,800103999,Tipo.ATM,SubTipo.ATM_ESTANDAR,-17.842373856770955,-63.24309424865507,"Restaurante Los Patos, Av. Doble Vía a la Guardia Km 8, Barrio El Bajío."
8292,Oficina Externa San Javier - Beni,Oficina Externa,,800103999,Tipo.AGENCIA,SubTipo.AGENCIA_D,-14.60027419846652,-64.88156106739143,"Ruta 9, Calle S/N, frente a la Plaza Principal 3 de Diciembre, acera oeste del Municipio de San Javier."
5306,Kiosco Smart Agencia America,Kiosco Smart,Horario.SI,800103999,Tipo.ATM,SubTipo.KIOSCO,-17.3722279516,-66.1625305116,Sala de Autoservicios de la Agencia América de la Av. América Esquina Libertador Bolívar.
5189,ATM: 322 Agencia América II,Cajero Automático,Horario.SI,800103999,Tipo.ATM,SubTipo.ATM_ESPECIAL,-17.3722314374,-66.1625329159,Sala de Autoservicios de la Agencia América de la Av. América Esquina Libertador Bolívar.
5191,ATM: 323 Agencia América III,Cajero Automático,Horario.SI,80010399,Tipo.ATM,SubTipo.ATM_ESTANDAR,-17.372220592,-66.162538223,Sala de Autoservicios de la Agencia América de la Av. América Esquina Libertador Bolívar.
4688,ATM: 456 Depositario V Ag. Norte,Cajero Automático,Horario.SI,800103999,Tipo.ATM,SubTipo.ATM_ESPECIAL,-17.755886663451083,-63.17783667400627,"Sala de Autoservicios de la Agencia Norte ubicada en Av. Cristo Redentor, equina Calle Monteniche, entre 3er y 4to. Anillo."
4367,Kiosco Smart Ag. Norte,Maquina dispensadora de Tarjeta de Débito,Horario.SI,800103999,Tipo.ATM,SubTipo.KIOSCO,-17.755673367536087,-63.1778111930206,"Sala de Autoservicios de la Agencia Norte ubicada en Av. Cristo Redentor, equina Calle Monteniche, entre 3er y 4to. Anillo."
4686,ATM: 455 Ag. Norte IV,Cajero Automático,Horario.SI,800103999,Tipo.ATM,SubTipo.ATM_ESPECIAL,-17.755853455720516,-63.17780046418457,"Sala de Autoservicios de la Agencia Norte ubicada en Av. Cristo Redentor, equina Calle Monteniche, entre 3er y 4to. Anillo."
4382,Kiosco Smart Ag. Santos Dumont,Maquina dispensadora de Tarjeta de Débito,Horario.SI,800103999,Tipo.ATM,SubTipo.KIOSCO,-17.815797410066786,-63.182987856419345,"Sala de Autoservicios de la Agencia Santos Dumont ubicada en la Av. Santos Dumont N° 1200 Esq. Calle Augusto Zambrano, entre 3er y 4to Anillo."
5177,ATM: 468 Madre India III,Cajero Automático,Horario.SI,800103999,Tipo.ATM,SubTipo.ATM_ESPECIAL,-17.79779948124529,-63.17469580724983,"Sala de Autoservicios de la Madre India ubicada en la Av. El trompillo, esquina Avenida Argentina, 2do. Anillo."
5173,ATM: 466 Madre India I,Cajero Automático,Horario.SI,800103999,Tipo.ATM,SubTipo.ATM_ESPECIAL,-17.797800758166048,-63.17468843117504,"Sala de Autoservicios de la Madre India ubicada en la Av. El trompillo, esquina Avenida Argentina, 2do. Anillo."
3299,ATM: 437 Pampa de la Isla - I,Cajero Automático,Horario.SI,800103999,Tipo.ATM,SubTipo.ATM_ESPECIAL,-17.770583553837177,-63.122791451517514,"Sobre Carretera Av. Virgen de Cotoca, 6to. Anillo, Esq. Vía Férrea, N° 10, Zona Pampa de la Isla, Barrio la Pascana."
3301,ATM: 436 Pampa de la Isla - II,Cajero Automático,Horario.SI,800103999,Tipo.ATM,SubTipo.ATM_ESPECIAL,-17.770652267482788,-63.12278897642125,"Sobre Carretera Av. Virgen de Cotoca, 6to. Anillo, Esq. Vía Férrea, N° 10, Zona Pampa de la Isla, Barrio la Pascana."
1681,ATM: 403 Agencia Paragua,Cajero Automático,Horario.SI,800-103999,Tipo.ATM,SubTipo.ATM_ESTANDAR,-17.76480869447155,-63.149406152593386,Sobre el 4to Anillo esquina Av. Paragua
5136,ATM: 463 Auto 4to Anillo I,Cajero Automático,Horario.SI,800103999,Tipo.ATM,SubTipo.ATM_L,-17.782942528447332,-63.216334419997025,"Sobre el 4to. Anillo, entre la Av. Roca y Coronado y la Esquina de la Calle Domingo Banegas, Zona Oeste."
5140,ATM: 465 Auto Atm 4to Anillo III,Cajero Automático,Horario.SI,800103999,Tipo.ATM,SubTipo.ATM_L,-17.782822487867563,-63.2162579770401,"Sobre el 4to. Anillo, entre la Av. Roca y Coronado y la Esquina de la Calle Domingo Banegas, Zona Oeste."
5138,ATM: 464 Auto Atm 4to Anillo II,Cajero Automático,Horario.SI,800103999,Tipo.ATM,SubTipo.ATM_L,-17.782896555468866,-63.216292845757295,"Sobre el 4to. Anillo, entre la Av. Roca y Coronado y la Esquina de la Calle Domingo Banegas, Zona Oeste."
7333,ATM: 264 Agencia Ciudad Real I,Cajero Automático,Horario.SI,800103999,Tipo.ATM,SubTipo.ATM_ESPECIAL,-17.7727972222222,-63.2023861111111,Sobre la Av. Busch y 3er Anillo. en instalaciones de la Agencia del Banco
4365,Kiosco Smart Oficina Central,Maquina dispensadora de Tarjeta de Débito,Horario.SI,800103999,Tipo.ATM,SubTipo.KIOSCO,-17.78261841454571,-63.180789765406644,Sobre la Calle Bolivar N° 99 (Exterior de nuestra Oficina Central).
8285,Oficina Externa Mojocoya,Oficina Externa,,800103999,Tipo.AGENCIA,SubTipo.AGENCIA_D,-18.8291804,-64.6194318,"Sobre la Plaza Principal de Redención Pampa, Municipio de Villa Mojocoya, s/n, Provincia Zudañez."
8288,Oficina Externa Pucara,Oficina Externa,,800103999,Tipo.AGENCIA,SubTipo.AGENCIA_D,-18.715193977877345,-64.18438193981171,"Sobre la Plaza Principal del Municipio de Pucará, s/n, Provincia Vallegrande."
5580,ATM: 474 Warnes,Cajero Automático,Horario.SI,800103999,Tipo.ATM,SubTipo.ATM_ESPECIAL,-17.510981822544917,-63.16722371043029,"Sobre la carretera principal, Av. 25 de Mayo N° 390 entre C/Coronel Mercado y C/Monseñor Daniel Rivero del Municipio de Warnes."
8123,ATM: 162 Fidalga El Trompillo,Cajero Automatico,Horario.SI,800103999,Tipo.ATM,SubTipo.ATM_ESTANDAR,-17.80045309159595,-63.183041117043224,"Supermercado Fidalga , Av. El Trompillo, 2do Anillo."
1052,ATM: 162 Fidalga El Trompillo,Cajero Automático,Horario.SI,800-103999,Tipo.ATM,SubTipo.ATM_ESTANDAR,-17.80047874609466,-63.183035255574794,"Supermercado Fidalga - Av. El Trompillo, Segundo Anillo de Circunvalación."
42,ATM: 149 Hipermaxi Las Palmas,Cajero Automático,Horario.SI,800-103999,Tipo.ATM,SubTipo.ATM_ESTANDAR,-17.81065,-63.2085805556,"Supermercado Hipermaxi - Zona Las Palmas, 4to Anillo Doble Via La Guardia"
5165,ATM: 321 Hipermaxi Circunvalación,Cajero Automático,Horario.SI,800103999,Tipo.ATM,SubTipo.ATM_ESTANDAR,-17.36399858774921,-66.16584069389211,Supermercado Hipermaxi de la Av. Circunvalación entre Calle Rafael Canedo y Calle A. Uzeda S/N.
113,ATM: 283 Hipermaxi Los Pinos LPZ,Cajero Automático,Horario.SI,800-103999,Tipo.ATM,SubTipo.ATM_ESTANDAR,-16.54555082033037,-68.07047358051018,"Supermercado Hipermaxi de la Av. José María Achá N° 85, Zona Los Pinos, LPZ."
6436,ATM: 252 Hipermaxi Villa 1ro de Mayo,Cajero Automático,Horario.SI,800103999,Tipo.ATM,SubTipo.ATM_ESTANDAR,-17.797926813791968,-63.134647006771495,"Supermercado Hipermaxi, Barrio Villa 1ro. de Mayo."
6441,ATM: 400 Hipermaxi Plan 3000,Cajero Automático,Horario.SI,800103999,Tipo.ATM,SubTipo.ATM_ESTANDAR,-17.83549482252908,-63.13202207149303,"Supermercado Hipermaxi, Plan 3000, Av. Paurito."
5936,ATM: 720 Ketal Achumani,Cajero Automático,Horario.SI,800103999,Tipo.ATM,SubTipo.ATM_ESPECIAL,-16.53452863602966,-68.07209144761599,"Supermercado Ketal de la Av. Alexander, Zona Achumani."
6518,ATM: 489 Mainter Norte,Cajero Automático,Horario.SI,800103999,Tipo.ATM,SubTipo.ATM_ESTANDAR,-17.7017213,-63.1738,"Supermercado Wonderful, Km 8 ¿ al Norte, ingresando por Mainter."
37,ATM: 250 Surtidor Biopetrol Alemana,Cajero Automático,Horario.SI,800-103999,Tipo.ATM,SubTipo.ATM_ESTANDAR,-17.769088751535843,-63.171043690673294,"Surtidor BIOPETROL, Av. Alemana, Esquina Totai, 2do Anillo, UV 16, MZ 17, SCZ."
5704,ATM: 477 Gas y Gas,Cajero Automático,Horario.SI,800103999,Tipo.ATM,SubTipo.ATM_ESPECIAL,-17.822015905697285,-63.14526561424848,Surtidor Gas y Gas Av. Paurito esq. Av. Che Guevara (Plan 3.000)
7682,ATM: 490 Surtidor Palmasola,Cajero Automático,Horario.SI,800103999,Tipo.ATM,SubTipo.ATM_ESPECIAL,-17.84965960515117,-63.182505371178394,"Surtidor Palmasola, Av. Santos Dumont, 7mo. Anillo."
8884,ATM: 575 COMSER 7° Anillo,Cajero Automático,Horario.SI,800103999,Tipo.ATM,SubTipo.ATM_ESTANDAR,-17.725524202533705,-63.163647090876765,"Séptimo Anillo, entre Av. Cristo Redentor y Av. Prolongación Beni, Empresa COMSER S.R.L."
5906,ATM: 343 Terminal de Buses,Cajero Automático,Horario.SI,800103999,Tipo.ATM,SubTipo.ATM_ESPECIAL,-17.4021864643782,-66.1576897957434,"Terminal de Buses Cochabamba, Av. Ayacucho."
9348,Atm Sala Agencia Equipetrol,Cajero Automático,Horario.SI,800103999,Tipo.ATM,SubTipo.ATM_ESTANDAR,-17.767296,-63.193958,"UV. 34, MZ. 13, Zona Nor-Oeste, Barrio Equipetrol sobre Avenida San Martín esquina Calle 5, de la Ciudad de Santa Cruz de la Sierra"
9344,Auto Atm Agencia Equipetrol,Cajero Automático,Horario.SI,800103999,Tipo.ATM,SubTipo.ATM_L,-17.767296,-63.193958,"UV. 34, MZ. 13, Zona Nor-Oeste, Barrio Equipetrol sobre Avenida San Martín esquina Calle 5, de la Ciudad de Santa Cruz de la Sierra"
9351,Atm Sala Agencia Equipetrol II,Cajero Automático,Horario.SI,800103999,Tipo.ATM,SubTipo.ATM_ESPECIAL,-17.767296,-63.193958,"UV. 34, MZ. 13, Zona Nor-Oeste, Barrio Equipetrol sobre Avenida San Martín esquina Calle 5, de la Ciudad de Santa Cruz de la Sierra"
9315,Atm Agencia Equipetrol,Cajero Automático,Horario.SI,800103999,Tipo.ATM,SubTipo.ATM_ESTANDAR,-17.767296,-63.193958,"UV. 34, MZ. 13, Zona Nor-Oeste, Barrio Equipetrol sobre Avenida San Martín esquina Calle 5, de la Ciudad de Santa Cruz de la Sierra."
2519,AGENCIA EQUIPETROL,Santa Cruz,Horario.NO,(591 3) 317-3000,Tipo.AGENCIA,SubTipo.AGENCIA_NORMAL,-17.767296,-63.193958,"UV. 34, MZ. 13, Zona Nor-Oeste, Barrio Equipetrol sobre Avenida San Martín esquina calle Hugo Wast (calle 5 Este), de la Ciudad de Santa Cruz de la Sierra."
6500,ATM: 488 UDI Norte,Cajero Automático,Horario.SI,800103999,Tipo.ATM,SubTipo.ATM_ESPECIAL,-17.733644731976987,-63.17009857097751,"Universidad UDI, Av. Perimetral, ingreso trasero a la universidad."
8652,ATM: 747 Cruce Villa Adela,Cajero Automático,Horario.SI,800103999,Tipo.ATM,SubTipo.ATM_ESTANDAR,-16.535182127791302,-68.18964545757217,"Urb. Villa Bolivar Municipal, Av. Bolivia y Calle 2, Lote 14, El Alto"
1664,ATM: 401 Agencia Porongo,Cajero Automático,Horario.SI,800-103999,Tipo.ATM,SubTipo.ATM_ESTANDAR,-17.7551111111,-63.2214833333,"Urbanizacion Villa Bonita, av. Urubo UPU13 faja de equipamiento S/N casa del camba del Urubo."
9499,Kiosko de Autoservicio Ag. Porongo,Kiosko de Autoservicio,Horario.NO,3173000,Tipo.ATM,SubTipo.KIOSCO,-17.755317123454475,-63.22149455891072,"Urbanización Villa Bonita, Av. Urubó, UPU 13 Faja de Equipamiento s/n, Porongo"
19,AGENCIA PORONGO,Santa Cruz,Horario.NO,(591-3) 317-3000,Tipo.AGENCIA,SubTipo.AGENCIA_NORMAL,-17.7551305556,-63.2214888889,"Urbanización Villa Bonita, Av. Urubó, UPU 13 Faja de Equipamiento S/N, Porongo."
5576,ATM: 471 Av. Cumavi,Cajero Automático,Horario.SI,800103999,Tipo.ATM,SubTipo.ATM_ESPECIAL,-17.791751843595453,-63.13671137072707,"Villa 1ro de Mayo, Av. Cumavi N° 803, entre 4to y 5to Anillo, frente al Mercado San Juan."
